{
  "afghanistan": {
    "name": "أفغانستان",
    "en_name": "Afghanistan",
    "native_name": "افغانستان",
    "capital": "كابول",
    "en_capital": "Kabul",
    "alpha_2": "AF",
    "alpha_3": "AFG",
    "phone_code": "93"
  },
  "Ålandislands": {
    "name": "جزر آلاند",
    "en_name": "Åland Islands",
    "native_name": "Åland",
    "capital": "ماريهامن",
    "en_capital": "Mariehamn",
    "alpha_2": "AX",
    "alpha_3": "ALA",
    "phone_code": "358"
  },
  "albania": {
    "name": "ألبانيا",
    "en_name": "Albania",
    "native_name": "Shqipëria",
    "capital": "تيرانا",
    "en_capital": "Tirana",
    "alpha_2": "AL",
    "alpha_3": "ALB",
    "phone_code": "355"
  },
  "algeria": {
    "name": "الجزائر",
    "en_name": "Algeria",
    "native_name": "الجزائر",
    "capital": "الجزائر",
    "en_capital": "Algiers",
    "alpha_2": "DZ",
    "alpha_3": "DZA",
    "phone_code": "213"
  },
  "americansamoa": {
    "name": "ساموا الأمريكية",
    "en_name": "American Samoa",
    "native_name": "American Samoa",
    "capital": "باجو باجو",
    "en_capital": "Pago Pago",
    "alpha_2": "AS",
    "alpha_3": "ASM",
    "phone_code": "1684"
  },
  "andorra": {
    "name": "أندورا",
    "en_name": "Andorra",
    "native_name": "Andorra",
    "capital": "أندورا لا فيلا",
    "en_capital": "Andorra la Vella",
    "alpha_2": "AD",
    "alpha_3": "AND",
    "phone_code": "376"
  },
  "angola": {
    "name": "أنغولا",
    "en_name": "Angola",
    "native_name": "Angola",
    "capital": "لواندا",
    "en_capital": "Luanda",
    "alpha_2": "AO",
    "alpha_3": "AGO",
    "phone_code": "244"
  },
  "anguilla": {
    "name": "أنغيلا",
    "en_name": "Anguilla",
    "native_name": "Anguilla",
    "capital": "وادي",
    "en_capital": "The Valley",
    "alpha_2": "AI",
    "alpha_3": "AIA",
    "phone_code": "1264"
  },
  "antiguaandbarbuda": {
    "name": "أنتيغوا وبربودا",
    "en_name": "Antigua and Barbuda",
    "native_name": "Antigua and Barbuda",
    "capital": "سانت جون",
    "en_capital": "Saint John's",
    "alpha_2": "AG",
    "alpha_3": "ATG",
    "phone_code": "1268"
  },
  "argentina": {
    "name": "الأرجنتين",
    "en_name": "Argentina",
    "native_name": "Argentina",
    "capital": "بوينس آيرس",
    "en_capital": "Buenos Aires",
    "alpha_2": "AR",
    "alpha_3": "ARG",
    "phone_code": "54"
  },
  "armenia": {
    "name": "أرمينيا",
    "en_name": "Armenia",
    "native_name": "Հայաստան",
    "capital": "يريفان",
    "en_capital": "Yerevan",
    "alpha_2": "AM",
    "alpha_3": "ARM",
    "phone_code": "374"
  },
  "aruba": {
    "name": "أروبا",
    "en_name": "Aruba",
    "native_name": "Aruba",
    "capital": "اورانجستاد",
    "en_capital": "Oranjestad",
    "alpha_2": "AW",
    "alpha_3": "ABW",
    "phone_code": "297"
  },
  "australia": {
    "name": "أستراليا",
    "en_name": "Australia",
    "native_name": "Australia",
    "capital": "كانبيرا",
    "en_capital": "Canberra",
    "alpha_2": "AU",
    "alpha_3": "AUS",
    "phone_code": "61"
  },
  "austria": {
    "name": "النمسا",
    "en_name": "Austria",
    "native_name": "Österreich",
    "capital": "فيينا",
    "en_capital": "Vienna",
    "alpha_2": "AT",
    "alpha_3": "AUT",
    "phone_code": "43"
  },
  "azerbaijan": {
    "name": "أذربيجان",
    "en_name": "Azerbaijan",
    "native_name": "Azərbaycan",
    "capital": "باكو",
    "en_capital": "Baku",
    "alpha_2": "AZ",
    "alpha_3": "AZE",
    "phone_code": "994"
  },
  "thebahamas": {
    "name": "جزر البهاما",
    "en_name": "The Bahamas",
    "native_name": "Bahamas",
    "capital": "ناسو",
    "en_capital": "Nassau",
    "alpha_2": "BS",
    "alpha_3": "BHS",
    "phone_code": "1242"
  },
  "bahrain": {
    "name": "البحرين",
    "en_name": "Bahrain",
    "native_name": "‏البحرين",
    "capital": "المنامة",
    "en_capital": "Manama",
    "alpha_2": "BH",
    "alpha_3": "BHR",
    "phone_code": "973"
  },
  "bangladesh": {
    "name": "بنغلاديش",
    "en_name": "Bangladesh",
    "native_name": "Bangladesh",
    "capital": "دكا",
    "en_capital": "Dhaka",
    "alpha_2": "BD",
    "alpha_3": "BGD",
    "phone_code": "880"
  },
  "barbados": {
    "name": "بربادوس",
    "en_name": "Barbados",
    "native_name": "Barbados",
    "capital": "بريدجتاون",
    "en_capital": "Bridgetown",
    "alpha_2": "BB",
    "alpha_3": "BRB",
    "phone_code": "1246"
  },
  "belarus": {
    "name": "بيلاروس",
    "en_name": "Belarus",
    "native_name": "Белару́сь",
    "capital": "مينسك",
    "en_capital": "Minsk",
    "alpha_2": "BY",
    "alpha_3": "BLR",
    "phone_code": "375"
  },
  "belgium": {
    "name": "بلجيكا",
    "en_name": "Belgium",
    "native_name": "België",
    "capital": "بروكسل",
    "en_capital": "Brussels",
    "alpha_2": "BE",
    "alpha_3": "BEL",
    "phone_code": "32"
  },
  "belize": {
    "name": "بليز",
    "en_name": "Belize",
    "native_name": "Belize",
    "capital": "بلموبان",
    "en_capital": "Belmopan",
    "alpha_2": "BZ",
    "alpha_3": "BLZ",
    "phone_code": "501"
  },
  "benin": {
    "name": "بنن",
    "en_name": "Benin",
    "native_name": "Bénin",
    "capital": "بورتو نوفو",
    "en_capital": "Porto-Novo",
    "alpha_2": "BJ",
    "alpha_3": "BEN",
    "phone_code": "229"
  },
  "bermuda": {
    "name": "برمودا",
    "en_name": "Bermuda",
    "native_name": "Bermuda",
    "capital": "هاميلتون",
    "en_capital": "Hamilton",
    "alpha_2": "BM",
    "alpha_3": "BMU",
    "phone_code": "1441"
  },
  "bhutan": {
    "name": "بوتان",
    "en_name": "Bhutan",
    "native_name": "ʼbrug-yul",
    "capital": "تيمفو",
    "en_capital": "Thimphu",
    "alpha_2": "BT",
    "alpha_3": "BTN",
    "phone_code": "975"
  },
  "bolivia": {
    "name": "بوليفيا",
    "en_name": "Bolivia",
    "native_name": "Bolivia",
    "capital": "سوكري",
    "en_capital": "Sucre",
    "alpha_2": "BO",
    "alpha_3": "BOL",
    "phone_code": "591"
  },
  "bonaire": {
    "name": "بونير",
    "en_name": "Bonaire",
    "native_name": "Bonaire",
    "capital": "كرالنديجك",
    "en_capital": "Kralendijk",
    "alpha_2": "BQ",
    "alpha_3": "BES",
    "phone_code": "5997"
  },
  "botswana": {
    "name": "بوتسوانا",
    "en_name": "Botswana",
    "native_name": "Botswana",
    "capital": "غابورون",
    "en_capital": "Gaborone",
    "alpha_2": "BW",
    "alpha_3": "BWA",
    "phone_code": "267"
  },
  "brazil": {
    "name": "البرازيل",
    "en_name": "Brazil",
    "native_name": "Brasil",
    "capital": "برازيليا",
    "en_capital": "Brasília",
    "alpha_2": "BR",
    "alpha_3": "BRA",
    "phone_code": "55"
  },
  "britishindianoceanterritory": {
    "name": "إقليم المحيط الهندي البريطاني",
    "en_name": "British Indian Ocean Territory",
    "native_name": "British Indian Ocean Territory",
    "capital": "دييغو غارسيا",
    "en_capital": "Diego Garcia",
    "alpha_2": "IO",
    "alpha_3": "IOT",
    "phone_code": "246"
  },
  "britishvirginislands": {
    "name": "جزر فيرجن البريطانية",
    "en_name": "British Virgin Islands",
    "native_name": "British Virgin Islands",
    "capital": "رود تاون",
    "en_capital": "Road Town",
    "alpha_2": "VG",
    "alpha_3": "VGB",
    "phone_code": "1284"
  },
  "brunei": {
    "name": "بروناي",
    "en_name": "Brunei",
    "native_name": "Negara Brunei Darussalam",
    "capital": "بندر سيري بيغاوان",
    "en_capital": "Bandar Seri Begawan",
    "alpha_2": "BN",
    "alpha_3": "BRN",
    "phone_code": "673"
  },
  "bulgaria": {
    "name": "بلغاريا",
    "en_name": "Bulgaria",
    "native_name": "България",
    "capital": "صوفيا",
    "en_capital": "Sofia",
    "alpha_2": "BG",
    "alpha_3": "BGR",
    "phone_code": "359"
  },
  "burkinafaso": {
    "name": "بوركينا فاسو",
    "en_name": "Burkina Faso",
    "native_name": "Burkina Faso",
    "capital": "واغادوغو",
    "en_capital": "Ouagadougou",
    "alpha_2": "BF",
    "alpha_3": "BFA",
    "phone_code": "226"
  },
  "burundi": {
    "name": "بوروندي",
    "en_name": "Burundi",
    "native_name": "Burundi",
    "capital": "بوجومبورا",
    "en_capital": "Bujumbura",
    "alpha_2": "BI",
    "alpha_3": "BDI",
    "phone_code": "257"
  },
  "cambodia": {
    "name": "كمبوديا",
    "en_name": "Cambodia",
    "native_name": "Kâmpŭchéa",
    "capital": "بنوم بنه",
    "en_capital": "Phnom Penh",
    "alpha_2": "KH",
    "alpha_3": "KHM",
    "phone_code": "855"
  },
  "cameroon": {
    "name": "الكاميرون",
    "en_name": "Cameroon",
    "native_name": "Cameroon",
    "capital": "ياوندي",
    "en_capital": "Yaoundé",
    "alpha_2": "CM",
    "alpha_3": "CMR",
    "phone_code": "237"
  },
  "canada": {
    "name": "كندا",
    "en_name": "Canada",
    "native_name": "Canada",
    "capital": "أوتاوا",
    "en_capital": "Ottawa",
    "alpha_2": "CA",
    "alpha_3": "CAN",
    "phone_code": "1"
  },
  "capeverde": {
    "name": "الرأس الأخضر",
    "en_name": "Cape Verde",
    "native_name": "Cabo Verde",
    "capital": "برايا",
    "en_capital": "Praia",
    "alpha_2": "CV",
    "alpha_3": "CPV",
    "phone_code": "238"
  },
  "caymanislands": {
    "name": "جزر كايمان",
    "en_name": "Cayman Islands",
    "native_name": "Cayman Islands",
    "capital": "جورج تاون",
    "en_capital": "George Town",
    "alpha_2": "KY",
    "alpha_3": "CYM",
    "phone_code": "1345"
  },
  "centralafricanrepublic": {
    "name": "جمهورية أفريقيا الوسطى",
    "en_name": "Central African Republic",
    "native_name": "Ködörösêse tî Bêafrîka",
    "capital": "بانغي",
    "en_capital": "Bangui",
    "alpha_2": "CF",
    "alpha_3": "CAF",
    "phone_code": "236"
  },
  "chad": {
    "name": "تشاد",
    "en_name": "Chad",
    "native_name": "Tchad",
    "capital": "نجامينا",
    "en_capital": "N'Djamena",
    "alpha_2": "TD",
    "alpha_3": "TCD",
    "phone_code": "235"
  },
  "chile": {
    "name": "شيلي",
    "en_name": "Chile",
    "native_name": "Chile",
    "capital": "سانتياغو",
    "en_capital": "Santiago",
    "alpha_2": "CL",
    "alpha_3": "CHL",
    "phone_code": "56"
  },
  "china": {
    "name": "الصين",
    "en_name": "China",
    "native_name": "中国",
    "capital": "بكين",
    "en_capital": "Beijing",
    "alpha_2": "CN",
    "alpha_3": "CHN",
    "phone_code": "86"
  },
  "christmasisland": {
    "name": "جزيرة عيد الميلاد",
    "en_name": "Christmas Island",
    "native_name": "Christmas Island",
    "capital": "ذي سيتلمنت",
    "en_capital": "Flying Fish Cove",
    "alpha_2": "CX",
    "alpha_3": "CXR",
    "phone_code": "61"
  },
  "cocos(keeling)islands": {
    "name": "كوكوس (كيلينغ جزر",
    "en_name": "Cocos (Keeling) Islands",
    "native_name": "Cocos (Keeling) Islands",
    "capital": "غرب الجزيرة",
    "en_capital": "West Island",
    "alpha_2": "CC",
    "alpha_3": "CCK",
    "phone_code": "61"
  },
  "colombia": {
    "name": "كولومبيا",
    "en_name": "Colombia",
    "native_name": "Colombia",
    "capital": "بوغوتا",
    "en_capital": "Bogotá",
    "alpha_2": "CO",
    "alpha_3": "COL",
    "phone_code": "57"
  },
  "comoros": {
    "name": "جزر القمر",
    "en_name": "Comoros",
    "native_name": "Komori",
    "capital": "موروني",
    "en_capital": "Moroni",
    "alpha_2": "KM",
    "alpha_3": "COM",
    "phone_code": "269"
  },
  "republicofthecongo": {
    "name": "جمهورية الكونغو",
    "en_name": "Republic of the Congo",
    "native_name": "République du Congo",
    "capital": "برازافيل",
    "en_capital": "Brazzaville",
    "alpha_2": "CG",
    "alpha_3": "COG",
    "phone_code": "242"
  },
  "democraticrepublicofthecongo": {
    "name": "جمهورية الكونغو الديمقراطية",
    "en_name": "Democratic Republic of the Congo",
    "native_name": "République démocratique du Congo",
    "capital": "كينشاسا",
    "en_capital": "Kinshasa",
    "alpha_2": "CD",
    "alpha_3": "COD",
    "phone_code": "243"
  },
  "cookislands": {
    "name": "جزر كوك",
    "en_name": "Cook Islands",
    "native_name": "Cook Islands",
    "capital": "أفاروا",
    "en_capital": "Avarua",
    "alpha_2": "CK",
    "alpha_3": "COK",
    "phone_code": "682"
  },
  "costarica": {
    "name": "كوستاريكا",
    "en_name": "Costa Rica",
    "native_name": "Costa Rica",
    "capital": "سان خوسيه",
    "en_capital": "San José",
    "alpha_2": "CR",
    "alpha_3": "CRI",
    "phone_code": "506"
  },
  "croatia": {
    "name": "كرواتيا",
    "en_name": "Croatia",
    "native_name": "Hrvatska",
    "capital": "زغرب",
    "en_capital": "Zagreb",
    "alpha_2": "HR",
    "alpha_3": "HRV",
    "phone_code": "385"
  },
  "cuba": {
    "name": "كوبا",
    "en_name": "Cuba",
    "native_name": "Cuba",
    "capital": "هافانا",
    "en_capital": "Havana",
    "alpha_2": "CU",
    "alpha_3": "CUB",
    "phone_code": "53"
  },
  "curaçao": {
    "name": "كوراساو",
    "en_name": "Curaçao",
    "native_name": "Curaçao",
    "capital": "وليمستاد",
    "en_capital": "Willemstad",
    "alpha_2": "CW",
    "alpha_3": "CUW",
    "phone_code": "5999"
  },
  "cyprus": {
    "name": "قبرص",
    "en_name": "Cyprus",
    "native_name": "Κύπρος",
    "capital": "نيقوسيا",
    "en_capital": "Nicosia",
    "alpha_2": "CY",
    "alpha_3": "CYP",
    "phone_code": "357"
  },
  "czechrepublic": {
    "name": "الجمهورية التشيكية",
    "en_name": "Czech Republic",
    "native_name": "Česká republika",
    "capital": "براغ",
    "en_capital": "Prague",
    "alpha_2": "CZ",
    "alpha_3": "CZE",
    "phone_code": "420"
  },
  "denmark": {
    "name": "الدانمرك",
    "en_name": "Denmark",
    "native_name": "Danmark",
    "capital": "كوبنهاغن",
    "en_capital": "Copenhagen",
    "alpha_2": "DK",
    "alpha_3": "DNK",
    "phone_code": "45"
  },
  "djibouti": {
    "name": "جيبوتي",
    "en_name": "Djibouti",
    "native_name": "Djibouti",
    "capital": "جيبوتي",
    "en_capital": "Djibouti",
    "alpha_2": "DJ",
    "alpha_3": "DJI",
    "phone_code": "253"
  },
  "dominica": {
    "name": "دومينيكا",
    "en_name": "Dominica",
    "native_name": "Dominica",
    "capital": "روزيو",
    "en_capital": "Roseau",
    "alpha_2": "DM",
    "alpha_3": "DMA",
    "phone_code": "1767"
  },
  "dominicanrepublic": {
    "name": "الجمهورية الدومينيكية",
    "en_name": "Dominican Republic",
    "native_name": "República Dominicana",
    "capital": "سانتو دومينغو",
    "en_capital": "Santo Domingo",
    "alpha_2": "DO",
    "alpha_3": "DOM",
    "phone_code": "1809"
  },
  "ecuador": {
    "name": "إكوادور",
    "en_name": "Ecuador",
    "native_name": "Ecuador",
    "capital": "كيتو",
    "en_capital": "Quito",
    "alpha_2": "EC",
    "alpha_3": "ECU",
    "phone_code": "593"
  },
  "egypt": {
    "name": "مصر",
    "en_name": "Egypt",
    "native_name": "مصر‎",
    "capital": "القاهرة",
    "en_capital": "Cairo",
    "alpha_2": "EG",
    "alpha_3": "EGY",
    "phone_code": "20"
  },
  "elsalvador": {
    "name": "السلفادور",
    "en_name": "El Salvador",
    "native_name": "El Salvador",
    "capital": "سان سلفادور",
    "en_capital": "San Salvador",
    "alpha_2": "SV",
    "alpha_3": "SLV",
    "phone_code": "503"
  },
  "equatorialguinea": {
    "name": "غينيا الاستوائية",
    "en_name": "Equatorial Guinea",
    "native_name": "Guinea Ecuatorial",
    "capital": "مالابو",
    "en_capital": "Malabo",
    "alpha_2": "GQ",
    "alpha_3": "GNQ",
    "phone_code": "240"
  },
  "eritrea": {
    "name": "إريتريا",
    "en_name": "Eritrea",
    "native_name": "ኤርትራ",
    "capital": "أسمرة",
    "en_capital": "Asmara",
    "alpha_2": "ER",
    "alpha_3": "ERI",
    "phone_code": "291"
  },
  "estonia": {
    "name": "إستونيا",
    "en_name": "Estonia",
    "native_name": "Eesti",
    "capital": "تالين",
    "en_capital": "Tallinn",
    "alpha_2": "EE",
    "alpha_3": "EST",
    "phone_code": "372"
  },
  "ethiopia": {
    "name": "إثيوبيا",
    "en_name": "Ethiopia",
    "native_name": "ኢትዮጵያ",
    "capital": "أديس أبابا",
    "en_capital": "Addis Ababa",
    "alpha_2": "ET",
    "alpha_3": "ETH",
    "phone_code": "251"
  },
  "falklandislands": {
    "name": "جزر فوكلاند",
    "en_name": "Falkland Islands",
    "native_name": "Falkland Islands",
    "capital": "ستانلي",
    "en_capital": "Stanley",
    "alpha_2": "FK",
    "alpha_3": "FLK",
    "phone_code": "500"
  },
  "faroeislands": {
    "name": "جزر فارو",
    "en_name": "Faroe Islands",
    "native_name": "Føroyar",
    "capital": "تورشافن",
    "en_capital": "Tórshavn",
    "alpha_2": "FO",
    "alpha_3": "FRO",
    "phone_code": "298"
  },
  "fiji": {
    "name": "فيجي",
    "en_name": "Fiji",
    "native_name": "Fiji",
    "capital": "سوفا",
    "en_capital": "Suva",
    "alpha_2": "FJ",
    "alpha_3": "FJI",
    "phone_code": "679"
  },
  "finland": {
    "name": "فنلندا",
    "en_name": "Finland",
    "native_name": "Suomi",
    "capital": "هلسنكي",
    "en_capital": "Helsinki",
    "alpha_2": "FI",
    "alpha_3": "FIN",
    "phone_code": "358"
  },
  "france": {
    "name": "فرنسا",
    "en_name": "France",
    "native_name": "France",
    "capital": "باريس",
    "en_capital": "Paris",
    "alpha_2": "FR",
    "alpha_3": "FRA",
    "phone_code": "33"
  },
  "frenchguiana": {
    "name": "غويانا الفرنسية",
    "en_name": "French Guiana",
    "native_name": "Guyane française",
    "capital": "كايين",
    "en_capital": "Cayenne",
    "alpha_2": "GF",
    "alpha_3": "GUF",
    "phone_code": "594"
  },
  "frenchpolynesia": {
    "name": "بولينيزيا الفرنسية",
    "en_name": "French Polynesia",
    "native_name": "Polynésie française",
    "capital": "Papeetē",
    "en_capital": "Papeetē",
    "alpha_2": "PF",
    "alpha_3": "PYF",
    "phone_code": "689"
  },
  "frenchsouthernandantarcticlands": {
    "name": "الأراضي الفرنسية الجنوبية والقطبية الجنوبية",
    "en_name": "French Southern and Antarctic Lands",
    "native_name": "Territoire des Terres australes et antarctiques françaises",
    "capital": "بورت-اوكس-فرانكايس",
    "en_capital": "Port-aux-Français",
    "alpha_2": "TF",
    "alpha_3": "ATF",
    "phone_code": "262"
  },
  "gabon": {
    "name": "غابون",
    "en_name": "Gabon",
    "native_name": "Gabon",
    "capital": "ليبرفيل",
    "en_capital": "Libreville",
    "alpha_2": "GA",
    "alpha_3": "GAB",
    "phone_code": "241"
  },
  "thegambia": {
    "name": "غامبيا",
    "en_name": "The Gambia",
    "native_name": "Gambia",
    "capital": "بانجول",
    "en_capital": "Banjul",
    "alpha_2": "GM",
    "alpha_3": "GMB",
    "phone_code": "220"
  },
  "georgia": {
    "name": "جورجيا",
    "en_name": "Georgia",
    "native_name": "საქართველო",
    "capital": "تبليسي",
    "en_capital": "Tbilisi",
    "alpha_2": "GE",
    "alpha_3": "GEO",
    "phone_code": "995"
  },
  "germany": {
    "name": "ألمانيا",
    "en_name": "Germany",
    "native_name": "Deutschland",
    "capital": "برلين",
    "en_capital": "Berlin",
    "alpha_2": "DE",
    "alpha_3": "DEU",
    "phone_code": "49"
  },
  "ghana": {
    "name": "غانا",
    "en_name": "Ghana",
    "native_name": "Ghana",
    "capital": "أكرا",
    "en_capital": "Accra",
    "alpha_2": "GH",
    "alpha_3": "GHA",
    "phone_code": "233"
  },
  "gibraltar": {
    "name": "طارق",
    "en_name": "Gibraltar",
    "native_name": "Gibraltar",
    "capital": "طارق",
    "en_capital": "Gibraltar",
    "alpha_2": "GI",
    "alpha_3": "GIB",
    "phone_code": "350"
  },
  "greece": {
    "name": "اليونان",
    "en_name": "Greece",
    "native_name": "Ελλάδα",
    "capital": "أثينا",
    "en_capital": "Athens",
    "alpha_2": "GR",
    "alpha_3": "GRC",
    "phone_code": "30"
  },
  "greenland": {
    "name": "غرينلاند",
    "en_name": "Greenland",
    "native_name": "Kalaallit Nunaat",
    "capital": "نوك",
    "en_capital": "Nuuk",
    "alpha_2": "GL",
    "alpha_3": "GRL",
    "phone_code": "299"
  },
  "grenada": {
    "name": "غرينادا",
    "en_name": "Grenada",
    "native_name": "Grenada",
    "capital": "سانت جورج",
    "en_capital": "St. George's",
    "alpha_2": "GD",
    "alpha_3": "GRD",
    "phone_code": "1473"
  },
  "guadeloupe": {
    "name": "غوادلوب",
    "en_name": "Guadeloupe",
    "native_name": "Guadeloupe",
    "capital": "باس-تير",
    "en_capital": "Basse-Terre",
    "alpha_2": "GP",
    "alpha_3": "GLP",
    "phone_code": "590"
  },
  "guam": {
    "name": "غوام",
    "en_name": "Guam",
    "native_name": "Guam",
    "capital": "هاغاتنا",
    "en_capital": "Hagåtña",
    "alpha_2": "GU",
    "alpha_3": "GUM",
    "phone_code": "1671"
  },
  "guatemala": {
    "name": "غواتيمالا",
    "en_name": "Guatemala",
    "native_name": "Guatemala",
    "capital": "مدينة غواتيمالا",
    "en_capital": "Guatemala City",
    "alpha_2": "GT",
    "alpha_3": "GTM",
    "phone_code": "502"
  },
  "guernsey": {
    "name": "غيرنسي",
    "en_name": "Guernsey",
    "native_name": "Guernsey",
    "capital": "سانت بيتر بورت",
    "en_capital": "St. Peter Port",
    "alpha_2": "GG",
    "alpha_3": "GGY",
    "phone_code": "44"
  },
  "guinea": {
    "name": "غينيا",
    "en_name": "Guinea",
    "native_name": "Guinée",
    "capital": "كوناكري",
    "en_capital": "Conakry",
    "alpha_2": "GN",
    "alpha_3": "GIN",
    "phone_code": "224"
  },
  "guineabissau": {
    "name": "غينيا-بيساو",
    "en_name": "Guinea-Bissau",
    "native_name": "Guiné-Bissau",
    "capital": "بيساو",
    "en_capital": "Bissau",
    "alpha_2": "GW",
    "alpha_3": "GNB",
    "phone_code": "245"
  },
  "guyana": {
    "name": "غيانا",
    "en_name": "Guyana",
    "native_name": "Guyana",
    "capital": "جورج تاون",
    "en_capital": "Georgetown",
    "alpha_2": "GY",
    "alpha_3": "GUY",
    "phone_code": "592"
  },
  "haiti": {
    "name": "هايتي",
    "en_name": "Haiti",
    "native_name": "Haïti",
    "capital": "Port-au-Prince",
    "en_capital": "Port-au-Prince",
    "alpha_2": "HT",
    "alpha_3": "HTI",
    "phone_code": "509"
  },
  "honduras": {
    "name": "هندوراس",
    "en_name": "Honduras",
    "native_name": "Honduras",
    "capital": "تيغوسيغالبا",
    "en_capital": "Tegucigalpa",
    "alpha_2": "HN",
    "alpha_3": "HND",
    "phone_code": "504"
  },
  "hongkong": {
    "name": "هونغ كونغ",
    "en_name": "Hong Kong",
    "native_name": "香港",
    "capital": "مدينة فيكتوريا",
    "en_capital": "City of Victoria",
    "alpha_2": "HK",
    "alpha_3": "HKG",
    "phone_code": "852"
  },
  "hungary": {
    "name": "هنغاريا",
    "en_name": "Hungary",
    "native_name": "Magyarország",
    "capital": "بودابست",
    "en_capital": "Budapest",
    "alpha_2": "HU",
    "alpha_3": "HUN",
    "phone_code": "36"
  },
  "iceland": {
    "name": "أيسلندا",
    "en_name": "Iceland",
    "native_name": "Ísland",
    "capital": "ريكيافيك",
    "en_capital": "Reykjavik",
    "alpha_2": "IS",
    "alpha_3": "ISL",
    "phone_code": "354"
  },
  "india": {
    "name": "الهند",
    "en_name": "India",
    "native_name": "भारत",
    "capital": "نيودلهي",
    "en_capital": "New Delhi",
    "alpha_2": "IN",
    "alpha_3": "IND",
    "phone_code": "91"
  },
  "indonesia": {
    "name": "إندونيسيا",
    "en_name": "Indonesia",
    "native_name": "Indonesia",
    "capital": "جاكرتا",
    "en_capital": "Jakarta",
    "alpha_2": "ID",
    "alpha_3": "IDN",
    "phone_code": "62"
  },
  "ivorycoast": {
    "name": "ساحل العاج",
    "en_name": "Ivory Coast",
    "native_name": "Côte d'Ivoire",
    "capital": "ياموسوكرو",
    "en_capital": "Yamoussoukro",
    "alpha_2": "CI",
    "alpha_3": "CIV",
    "phone_code": "225"
  },
  "iran": {
    "name": "إيران",
    "en_name": "Iran",
    "native_name": "Irān",
    "capital": "طهران",
    "en_capital": "Tehran",
    "alpha_2": "IR",
    "alpha_3": "IRN",
    "phone_code": "98"
  },
  "iraq": {
    "name": "العراق",
    "en_name": "Iraq",
    "native_name": "العراق",
    "capital": "بغداد",
    "en_capital": "Baghdad",
    "alpha_2": "IQ",
    "alpha_3": "IRQ",
    "phone_code": "964"
  },
  "republicofireland": {
    "name": "جمهورية أيرلندا",
    "en_name": "Republic of Ireland",
    "native_name": "Éire",
    "capital": "دبلن",
    "en_capital": "Dublin",
    "alpha_2": "IE",
    "alpha_3": "IRL",
    "phone_code": "353"
  },
  "isleofman": {
    "name": "مان",
    "en_name": "Isle of Man",
    "native_name": "Isle of Man",
    "capital": "دوغلاس",
    "en_capital": "Douglas",
    "alpha_2": "IM",
    "alpha_3": "IMN",
    "phone_code": "44"
  },
  "israel": {
    "name": "إسرائيل",
    "en_name": "Israel",
    "native_name": "יִשְׂרָאֵל",
    "capital": "تل أبيب",
    "en_capital": "Tel Aviv",
    "alpha_2": "IL",
    "alpha_3": "ISR",
    "phone_code": "972"
  },
  "italy": {
    "name": "إيطاليا",
    "en_name": "Italy",
    "native_name": "Italia",
    "capital": "روما",
    "en_capital": "Rome",
    "alpha_2": "IT",
    "alpha_3": "ITA",
    "phone_code": "39"
  },
  "jamaica": {
    "name": "جامايكا",
    "en_name": "Jamaica",
    "native_name": "Jamaica",
    "capital": "كينغستون",
    "en_capital": "Kingston",
    "alpha_2": "JM",
    "alpha_3": "JAM",
    "phone_code": "1876"
  },
  "japan": {
    "name": "اليابان",
    "en_name": "Japan",
    "native_name": "日本",
    "capital": "طوكيو",
    "en_capital": "Tokyo",
    "alpha_2": "JP",
    "alpha_3": "JPN",
    "phone_code": "81"
  },
  "jordan": {
    "name": "الأردن",
    "en_name": "Jordan",
    "native_name": "الأردن",
    "capital": "عمان",
    "en_capital": "Amman",
    "alpha_2": "JO",
    "alpha_3": "JOR",
    "phone_code": "962"
  },
  "kazakhstan": {
    "name": "كازاخستان",
    "en_name": "Kazakhstan",
    "native_name": "Қазақстан",
    "capital": "أستانا",
    "en_capital": "Astana",
    "alpha_2": "KZ",
    "alpha_3": "KAZ",
    "phone_code": "76"
  },
  "kenya": {
    "name": "كينيا",
    "en_name": "Kenya",
    "native_name": "Kenya",
    "capital": "نيروبي",
    "en_capital": "Nairobi",
    "alpha_2": "KE",
    "alpha_3": "KEN",
    "phone_code": "254"
  },
  "kiribati": {
    "name": "كيريباس",
    "en_name": "Kiribati",
    "native_name": "Kiribati",
    "capital": "جنوب تاراوا",
    "en_capital": "South Tarawa",
    "alpha_2": "KI",
    "alpha_3": "KIR",
    "phone_code": "686"
  },
  "kuwait": {
    "name": "الكويت",
    "en_name": "Kuwait",
    "native_name": "الكويت",
    "capital": "مدينة الكويت",
    "en_capital": "Kuwait City",
    "alpha_2": "KW",
    "alpha_3": "KWT",
    "phone_code": "965"
  },
  "kyrgyzstan": {
    "name": "قيرغيزستان",
    "en_name": "Kyrgyzstan",
    "native_name": "Кыргызстан",
    "capital": "بيشكيك",
    "en_capital": "Bishkek",
    "alpha_2": "KG",
    "alpha_3": "KGZ",
    "phone_code": "996"
  },
  "laos": {
    "name": "لاوس",
    "en_name": "Laos",
    "native_name": "ສປປລາວ",
    "capital": "فينتيان",
    "en_capital": "Vientiane",
    "alpha_2": "LA",
    "alpha_3": "LAO",
    "phone_code": "856"
  },
  "latvia": {
    "name": "لاتفيا",
    "en_name": "Latvia",
    "native_name": "Latvija",
    "capital": "ريغا",
    "en_capital": "Riga",
    "alpha_2": "LV",
    "alpha_3": "LVA",
    "phone_code": "371"
  },
  "lebanon": {
    "name": "لبنان",
    "en_name": "Lebanon",
    "native_name": "لبنان",
    "capital": "بيروت",
    "en_capital": "Beirut",
    "alpha_2": "LB",
    "alpha_3": "LBN",
    "phone_code": "961"
  },
  "lesotho": {
    "name": "ليسوتو",
    "en_name": "Lesotho",
    "native_name": "Lesotho",
    "capital": "ماسيرو",
    "en_capital": "Maseru",
    "alpha_2": "LS",
    "alpha_3": "LSO",
    "phone_code": "266"
  },
  "liberia": {
    "name": "ليبريا",
    "en_name": "Liberia",
    "native_name": "Liberia",
    "capital": "مونروفيا",
    "en_capital": "Monrovia",
    "alpha_2": "LR",
    "alpha_3": "LBR",
    "phone_code": "231"
  },
  "libya": {
    "name": "ليبيا",
    "en_name": "Libya",
    "native_name": "‏ليبيا",
    "capital": "طرابلس",
    "en_capital": "Tripoli",
    "alpha_2": "LY",
    "alpha_3": "LBY",
    "phone_code": "218"
  },
  "liechtenstein": {
    "name": "ليختنشتاين",
    "en_name": "Liechtenstein",
    "native_name": "Liechtenstein",
    "capital": "فادوز",
    "en_capital": "Vaduz",
    "alpha_2": "LI",
    "alpha_3": "LIE",
    "phone_code": "423"
  },
  "lithuania": {
    "name": "ليتوانيا",
    "en_name": "Lithuania",
    "native_name": "Lietuva",
    "capital": "فيلنيوس",
    "en_capital": "Vilnius",
    "alpha_2": "LT",
    "alpha_3": "LTU",
    "phone_code": "370"
  },
  "luxembourg": {
    "name": "لكسمبرغ",
    "en_name": "Luxembourg",
    "native_name": "Luxembourg",
    "capital": "لكسمبرغ",
    "en_capital": "Luxembourg",
    "alpha_2": "LU",
    "alpha_3": "LUX",
    "phone_code": "352"
  },
  "republicofmacedonia": {
    "name": "جمهورية مقدونيا",
    "en_name": "Republic of Macedonia",
    "native_name": "Македонија",
    "capital": "سكوبي",
    "en_capital": "Skopje",
    "alpha_2": "MK",
    "alpha_3": "MKD",
    "phone_code": "389"
  },
  "madagascar": {
    "name": "مدغشقر",
    "en_name": "Madagascar",
    "native_name": "Madagasikara",
    "capital": "أنتاناناريفو",
    "en_capital": "Antananarivo",
    "alpha_2": "MG",
    "alpha_3": "MDG",
    "phone_code": "261"
  },
  "malawi": {
    "name": "ملاوي",
    "en_name": "Malawi",
    "native_name": "Malawi",
    "capital": "ليلونغوي",
    "en_capital": "Lilongwe",
    "alpha_2": "MW",
    "alpha_3": "MWI",
    "phone_code": "265"
  },
  "malaysia": {
    "name": "ماليزيا",
    "en_name": "Malaysia",
    "native_name": "Malaysia",
    "capital": "كوالالمبور",
    "en_capital": "Kuala Lumpur",
    "alpha_2": "MY",
    "alpha_3": "MYS",
    "phone_code": "60"
  },
  "maldives": {
    "name": "جزر المالديف",
    "en_name": "Maldives",
    "native_name": "Maldives",
    "capital": "ماليه",
    "en_capital": "Malé",
    "alpha_2": "MV",
    "alpha_3": "MDV",
    "phone_code": "960"
  },
  "mali": {
    "name": "مالي",
    "en_name": "Mali",
    "native_name": "Mali",
    "capital": "باماكو",
    "en_capital": "Bamako",
    "alpha_2": "ML",
    "alpha_3": "MLI",
    "phone_code": "223"
  },
  "malta": {
    "name": "مالطة",
    "en_name": "Malta",
    "native_name": "Malta",
    "capital": "فاليتا",
    "en_capital": "Valletta",
    "alpha_2": "MT",
    "alpha_3": "MLT",
    "phone_code": "356"
  },
  "marshallislands": {
    "name": "جزر مارشال",
    "en_name": "Marshall Islands",
    "native_name": "M̧ajeļ",
    "capital": "ماجورو",
    "en_capital": "Majuro",
    "alpha_2": "MH",
    "alpha_3": "MHL",
    "phone_code": "692"
  },
  "martinique": {
    "name": "مارتينيك",
    "en_name": "Martinique",
    "native_name": "Martinique",
    "capital": "Fort-de-France",
    "en_capital": "Fort-de-France",
    "alpha_2": "MQ",
    "alpha_3": "MTQ",
    "phone_code": "596"
  },
  "mauritania": {
    "name": "موريتانيا",
    "en_name": "Mauritania",
    "native_name": "موريتانيا",
    "capital": "نواكشوط",
    "en_capital": "Nouakchott",
    "alpha_2": "MR",
    "alpha_3": "MRT",
    "phone_code": "222"
  },
  "mauritius": {
    "name": "موريشيوس",
    "en_name": "Mauritius",
    "native_name": "Maurice",
    "capital": "بورت لويس",
    "en_capital": "Port Louis",
    "alpha_2": "MU",
    "alpha_3": "MUS",
    "phone_code": "230"
  },
  "mayotte": {
    "name": "مايوت",
    "en_name": "Mayotte",
    "native_name": "Mayotte",
    "capital": "مامودزو",
    "en_capital": "Mamoudzou",
    "alpha_2": "YT",
    "alpha_3": "MYT",
    "phone_code": "262"
  },
  "mexico": {
    "name": "المكسيك",
    "en_name": "Mexico",
    "native_name": "México",
    "capital": "مكسيكو سيتي",
    "en_capital": "Mexico City",
    "alpha_2": "MX",
    "alpha_3": "MEX",
    "phone_code": "52"
  },
  "federatedstatesofmicronesia": {
    "name": "ميكرونيزيا (ولايات-الموحدة",
    "en_name": "Federated States of Micronesia",
    "native_name": "Micronesia",
    "capital": "Palikir",
    "en_capital": "Palikir",
    "alpha_2": "FM",
    "alpha_3": "FSM",
    "phone_code": "691"
  },
  "moldova": {
    "name": "مولدوفا",
    "en_name": "Moldova",
    "native_name": "Moldova",
    "capital": "Chișinău",
    "en_capital": "Chișinău",
    "alpha_2": "MD",
    "alpha_3": "MDA",
    "phone_code": "373"
  },
  "monaco": {
    "name": "موناكو",
    "en_name": "Monaco",
    "native_name": "Monaco",
    "capital": "موناكو",
    "en_capital": "Monaco",
    "alpha_2": "MC",
    "alpha_3": "MCO",
    "phone_code": "377"
  },
  "mongolia": {
    "name": "منغوليا",
    "en_name": "Mongolia",
    "native_name": "Монгол улс",
    "capital": "أولان باتور",
    "en_capital": "Ulan Bator",
    "alpha_2": "MN",
    "alpha_3": "MNG",
    "phone_code": "976"
  },
  "montenegro": {
    "name": "الأسود",
    "en_name": "Montenegro",
    "native_name": "Црна Гора",
    "capital": "بودغوريتسا",
    "en_capital": "Podgorica",
    "alpha_2": "ME",
    "alpha_3": "MNE",
    "phone_code": "382"
  },
  "montserrat": {
    "name": "مونتسيرات",
    "en_name": "Montserrat",
    "native_name": "Montserrat",
    "capital": "بليموث",
    "en_capital": "Plymouth",
    "alpha_2": "MS",
    "alpha_3": "MSR",
    "phone_code": "1664"
  },
  "morocco": {
    "name": "المغرب",
    "en_name": "Morocco",
    "native_name": "المغرب",
    "capital": "الرباط",
    "en_capital": "Rabat",
    "alpha_2": "MA",
    "alpha_3": "MAR",
    "phone_code": "212"
  },
  "mozambique": {
    "name": "موزامبيق",
    "en_name": "Mozambique",
    "native_name": "Moçambique",
    "capital": "مابوتو",
    "en_capital": "Maputo",
    "alpha_2": "MZ",
    "alpha_3": "MOZ",
    "phone_code": "258"
  },
  "myanmar": {
    "name": "ميانمار",
    "en_name": "Myanmar",
    "native_name": "Myanma",
    "capital": "نايبيداو",
    "en_capital": "Naypyidaw",
    "alpha_2": "MM",
    "alpha_3": "MMR",
    "phone_code": "95"
  },
  "namibia": {
    "name": "ناميبيا",
    "en_name": "Namibia",
    "native_name": "Namibia",
    "capital": "ويندهوك",
    "en_capital": "Windhoek",
    "alpha_2": "NA",
    "alpha_3": "NAM",
    "phone_code": "264"
  },
  "nauru": {
    "name": "ناورو",
    "en_name": "Nauru",
    "native_name": "Nauru",
    "capital": "يارن",
    "en_capital": "Yaren",
    "alpha_2": "NR",
    "alpha_3": "NRU",
    "phone_code": "674"
  },
  "nepal": {
    "name": "نيبال",
    "en_name": "Nepal",
    "native_name": "नपल",
    "capital": "كاتماندو",
    "en_capital": "Kathmandu",
    "alpha_2": "NP",
    "alpha_3": "NPL",
    "phone_code": "977"
  },
  "netherlands": {
    "name": "هولندا",
    "en_name": "Netherlands",
    "native_name": "Nederland",
    "capital": "أمستردام",
    "en_capital": "Amsterdam",
    "alpha_2": "NL",
    "alpha_3": "NLD",
    "phone_code": "31"
  },
  "newcaledonia": {
    "name": "كاليدونيا الجديدة",
    "en_name": "New Caledonia",
    "native_name": "Nouvelle-Calédonie",
    "capital": "نوميا",
    "en_capital": "Nouméa",
    "alpha_2": "NC",
    "alpha_3": "NCL",
    "phone_code": "687"
  },
  "newzealand": {
    "name": "نيوزيلندا",
    "en_name": "New Zealand",
    "native_name": "New Zealand",
    "capital": "ولينغتون",
    "en_capital": "Wellington",
    "alpha_2": "NZ",
    "alpha_3": "NZL",
    "phone_code": "64"
  },
  "nicaragua": {
    "name": "نيكاراغوا",
    "en_name": "Nicaragua",
    "native_name": "Nicaragua",
    "capital": "ماناغوا",
    "en_capital": "Managua",
    "alpha_2": "NI",
    "alpha_3": "NIC",
    "phone_code": "505"
  },
  "niger": {
    "name": "النيجر",
    "en_name": "Niger",
    "native_name": "Niger",
    "capital": "نيامي",
    "en_capital": "Niamey",
    "alpha_2": "NE",
    "alpha_3": "NER",
    "phone_code": "227"
  },
  "nigeria": {
    "name": "نيجيريا",
    "en_name": "Nigeria",
    "native_name": "Nigeria",
    "capital": "أبوجا",
    "en_capital": "Abuja",
    "alpha_2": "NG",
    "alpha_3": "NGA",
    "phone_code": "234"
  },
  "niue": {
    "name": "نيوي",
    "en_name": "Niue",
    "native_name": "Niuē",
    "capital": "العوفي",
    "en_capital": "Alofi",
    "alpha_2": "NU",
    "alpha_3": "NIU",
    "phone_code": "683"
  },
  "norfolkisland": {
    "name": "جزيرة نورفولك",
    "en_name": "Norfolk Island",
    "native_name": "Norfolk Island",
    "capital": "كينغستون",
    "en_capital": "Kingston",
    "alpha_2": "NF",
    "alpha_3": "NFK",
    "phone_code": "672"
  },
  "northkorea": {
    "name": "كوريا الشمالية",
    "en_name": "North Korea",
    "native_name": "북한",
    "capital": "بيونغ يانغ",
    "en_capital": "Pyongyang",
    "alpha_2": "KP",
    "alpha_3": "PRK",
    "phone_code": "850"
  },
  "northernmarianaislands": {
    "name": "جزر ماريانا الشمالية",
    "en_name": "Northern Mariana Islands",
    "native_name": "Northern Mariana Islands",
    "capital": "سايبان",
    "en_capital": "Saipan",
    "alpha_2": "MP",
    "alpha_3": "MNP",
    "phone_code": "1670"
  },
  "norway": {
    "name": "النرويج",
    "en_name": "Norway",
    "native_name": "Norge",
    "capital": "أوسلو",
    "en_capital": "Oslo",
    "alpha_2": "NO",
    "alpha_3": "NOR",
    "phone_code": "47"
  },
  "oman": {
    "name": "عمان",
    "en_name": "Oman",
    "native_name": "عمان",
    "capital": "مسقط",
    "en_capital": "Muscat",
    "alpha_2": "OM",
    "alpha_3": "OMN",
    "phone_code": "968"
  },
  "pakistan": {
    "name": "باكستان",
    "en_name": "Pakistan",
    "native_name": "Pakistan",
    "capital": "إسلام أباد",
    "en_capital": "Islamabad",
    "alpha_2": "PK",
    "alpha_3": "PAK",
    "phone_code": "92"
  },
  "palau": {
    "name": "بالاو",
    "en_name": "Palau",
    "native_name": "Palau",
    "capital": "Ngerulmud",
    "en_capital": "Ngerulmud",
    "alpha_2": "PW",
    "alpha_3": "PLW",
    "phone_code": "680"
  },
  "palestine": {
    "name": "فلسطين",
    "en_name": "Palestine",
    "native_name": "فلسطين",
    "capital": "القدس",
    "en_capital": "Jerusalem",
    "alpha_2": "PS",
    "alpha_3": "PSE",
    "phone_code": "970"
  },
  "panama": {
    "name": "بنما",
    "en_name": "Panama",
    "native_name": "Panamá",
    "capital": "مدينة بنما",
    "en_capital": "Panama City",
    "alpha_2": "PA",
    "alpha_3": "PAN",
    "phone_code": "507"
  },
  "papuanewguinea": {
    "name": "بابوا غينيا الجديدة",
    "en_name": "Papua New Guinea",
    "native_name": "Papua Niugini",
    "capital": "بورت مورسبي",
    "en_capital": "Port Moresby",
    "alpha_2": "PG",
    "alpha_3": "PNG",
    "phone_code": "675"
  },
  "paraguay": {
    "name": "باراغواي",
    "en_name": "Paraguay",
    "native_name": "Paraguay",
    "capital": "أسونسيون",
    "en_capital": "Asunción",
    "alpha_2": "PY",
    "alpha_3": "PRY",
    "phone_code": "595"
  },
  "peru": {
    "name": "بيرو",
    "en_name": "Peru",
    "native_name": "Perú",
    "capital": "ليما",
    "en_capital": "Lima",
    "alpha_2": "PE",
    "alpha_3": "PER",
    "phone_code": "51"
  },
  "philippines": {
    "name": "الفلبين",
    "en_name": "Philippines",
    "native_name": "Pilipinas",
    "capital": "مانيلا",
    "en_capital": "Manila",
    "alpha_2": "PH",
    "alpha_3": "PHL",
    "phone_code": "63"
  },
  "pitcairnislands": {
    "name": "جزر بيتكيرن",
    "en_name": "Pitcairn Islands",
    "native_name": "Pitcairn Islands",
    "capital": "آدمزتاون",
    "en_capital": "Adamstown",
    "alpha_2": "PN",
    "alpha_3": "PCN",
    "phone_code": "64"
  },
  "poland": {
    "name": "بولندا",
    "en_name": "Poland",
    "native_name": "Polska",
    "capital": "وارسو",
    "en_capital": "Warsaw",
    "alpha_2": "PL",
    "alpha_3": "POL",
    "phone_code": "48"
  },
  "portugal": {
    "name": "البرتغال",
    "en_name": "Portugal",
    "native_name": "Portugal",
    "capital": "لشبونة",
    "en_capital": "Lisbon",
    "alpha_2": "PT",
    "alpha_3": "PRT",
    "phone_code": "351"
  },
  "puertorico": {
    "name": "بورتوريكو",
    "en_name": "Puerto Rico",
    "native_name": "Puerto Rico",
    "capital": "سان خوان",
    "en_capital": "San Juan",
    "alpha_2": "PR",
    "alpha_3": "PRI",
    "phone_code": "1787"
  },
  "qatar": {
    "name": "قطر",
    "en_name": "Qatar",
    "native_name": "قطر",
    "capital": "الدوحة",
    "en_capital": "Doha",
    "alpha_2": "QA",
    "alpha_3": "QAT",
    "phone_code": "974"
  },
  "republicofkosovo": {
    "name": "جمهورية كوسوفو",
    "en_name": "Republic of Kosovo",
    "native_name": "Republika e Kosovës",
    "capital": "بريشتينا",
    "en_capital": "Pristina",
    "alpha_2": "XK",
    "alpha_3": "KOS",
    "phone_code": "383"
  },
  "réunion": {
    "name": "ريونيون",
    "en_name": "Réunion",
    "native_name": "La Réunion",
    "capital": "Saint-Denis",
    "en_capital": "Saint-Denis",
    "alpha_2": "RE",
    "alpha_3": "REU",
    "phone_code": "262"
  },
  "romania": {
    "name": "رومانيا",
    "en_name": "Romania",
    "native_name": "România",
    "capital": "بوخارست",
    "en_capital": "Bucharest",
    "alpha_2": "RO",
    "alpha_3": "ROU",
    "phone_code": "40"
  },
  "russia": {
    "name": "روسيا",
    "en_name": "Russia",
    "native_name": "Россия",
    "capital": "موسكو",
    "en_capital": "Moscow",
    "alpha_2": "RU",
    "alpha_3": "RUS",
    "phone_code": "7"
  },
  "rwanda": {
    "name": "رواندا",
    "en_name": "Rwanda",
    "native_name": "Rwanda",
    "capital": "كيغالي",
    "en_capital": "Kigali",
    "alpha_2": "RW",
    "alpha_3": "RWA",
    "phone_code": "250"
  },
  "saintbarthélemy": {
    "name": "سانت بارتيليمي",
    "en_name": "Saint Barthélemy",
    "native_name": "Saint-Barthélemy",
    "capital": "جوستافيا",
    "en_capital": "Gustavia",
    "alpha_2": "BL",
    "alpha_3": "BLM",
    "phone_code": "590"
  },
  "saintkittsandnevis": {
    "name": "سانت كيتس ونيفيس",
    "en_name": "Saint Kitts and Nevis",
    "native_name": "Saint Kitts and Nevis",
    "capital": "باستير",
    "en_capital": "Basseterre",
    "alpha_2": "KN",
    "alpha_3": "KNA",
    "phone_code": "1869"
  },
  "saintlucia": {
    "name": "سانت لوسيا",
    "en_name": "Saint Lucia",
    "native_name": "Saint Lucia",
    "capital": "كاستريس",
    "en_capital": "Castries",
    "alpha_2": "LC",
    "alpha_3": "LCA",
    "phone_code": "1758"
  },
  "saintmartin": {
    "name": "سانت مارتن",
    "en_name": "Saint Martin",
    "native_name": "Saint-Martin",
    "capital": "ماريغوت",
    "en_capital": "Marigot",
    "alpha_2": "MF",
    "alpha_3": "MAF",
    "phone_code": "590"
  },
  "saintpierreandmiquelon": {
    "name": "سانت بيير وميكلون",
    "en_name": "Saint Pierre and Miquelon",
    "native_name": "Saint-Pierre-et-Miquelon",
    "capital": "Saint-Pierre",
    "en_capital": "Saint-Pierre",
    "alpha_2": "PM",
    "alpha_3": "SPM",
    "phone_code": "508"
  },
  "saintvincentandthegrenadines": {
    "name": "سانت فنسنت وجزر غرينادين",
    "en_name": "Saint Vincent and the Grenadines",
    "native_name": "Saint Vincent and the Grenadines",
    "capital": "كينغستاون",
    "en_capital": "Kingstown",
    "alpha_2": "VC",
    "alpha_3": "VCT",
    "phone_code": "1784"
  },
  "samoa": {
    "name": "ساموا",
    "en_name": "Samoa",
    "native_name": "Samoa",
    "capital": "آبيا",
    "en_capital": "Apia",
    "alpha_2": "WS",
    "alpha_3": "WSM",
    "phone_code": "685"
  },
  "sanmarino": {
    "name": "سان مارينو",
    "en_name": "San Marino",
    "native_name": "San Marino",
    "capital": "مدينة سان مارينو",
    "en_capital": "City of San Marino",
    "alpha_2": "SM",
    "alpha_3": "SMR",
    "phone_code": "378"
  },
  "sãotoméandpríncipe": {
    "name": "ساو تومي وبرينسيبي",
    "en_name": "São Tomé and Príncipe",
    "native_name": "São Tomé e Príncipe",
    "capital": "ساو تومي",
    "en_capital": "São Tomé",
    "alpha_2": "ST",
    "alpha_3": "STP",
    "phone_code": "239"
  },
  "saudiarabia": {
    "name": "المملكة العربية السعودية",
    "en_name": "Saudi Arabia",
    "native_name": "العربية السعودية",
    "capital": "الرياض",
    "en_capital": "Riyadh",
    "alpha_2": "SA",
    "alpha_3": "SAU",
    "phone_code": "966"
  },
  "senegal": {
    "name": "السنغال",
    "en_name": "Senegal",
    "native_name": "Sénégal",
    "capital": "داكار",
    "en_capital": "Dakar",
    "alpha_2": "SN",
    "alpha_3": "SEN",
    "phone_code": "221"
  },
  "serbia": {
    "name": "صربيا",
    "en_name": "Serbia",
    "native_name": "Србија",
    "capital": "بلغراد",
    "en_capital": "Belgrade",
    "alpha_2": "RS",
    "alpha_3": "SRB",
    "phone_code": "381"
  },
  "seychelles": {
    "name": "سيشيل",
    "en_name": "Seychelles",
    "native_name": "Seychelles",
    "capital": "فيكتوريا",
    "en_capital": "Victoria",
    "alpha_2": "SC",
    "alpha_3": "SYC",
    "phone_code": "248"
  },
  "sierraleone": {
    "name": "سيراليون",
    "en_name": "Sierra Leone",
    "native_name": "Sierra Leone",
    "capital": "فريتاون",
    "en_capital": "Freetown",
    "alpha_2": "SL",
    "alpha_3": "SLE",
    "phone_code": "232"
  },
  "singapore": {
    "name": "سنغافورة",
    "en_name": "Singapore",
    "native_name": "Singapore",
    "capital": "سنغافورة",
    "en_capital": "Singapore",
    "alpha_2": "SG",
    "alpha_3": "SGP",
    "phone_code": "65"
  },
  "sintmaarten": {
    "name": "سان مارتن",
    "en_name": "Sint Maarten",
    "native_name": "Sint Maarten",
    "capital": "فلسبرغ",
    "en_capital": "Philipsburg",
    "alpha_2": "SX",
    "alpha_3": "SXM",
    "phone_code": "1721"
  },
  "slovakia": {
    "name": "سلوفاكيا",
    "en_name": "Slovakia",
    "native_name": "Slovensko",
    "capital": "براتيسلافا",
    "en_capital": "Bratislava",
    "alpha_2": "SK",
    "alpha_3": "SVK",
    "phone_code": "421"
  },
  "slovenia": {
    "name": "سلوفينيا",
    "en_name": "Slovenia",
    "native_name": "Slovenija",
    "capital": "ليوبليانا",
    "en_capital": "Ljubljana",
    "alpha_2": "SI",
    "alpha_3": "SVN",
    "phone_code": "386"
  },
  "solomonislands": {
    "name": "جزر سليمان",
    "en_name": "Solomon Islands",
    "native_name": "Solomon Islands",
    "capital": "هونيارا",
    "en_capital": "Honiara",
    "alpha_2": "SB",
    "alpha_3": "SLB",
    "phone_code": "677"
  },
  "somalia": {
    "name": "الصومال",
    "en_name": "Somalia",
    "native_name": "Soomaaliya",
    "capital": "مقديشو",
    "en_capital": "Mogadishu",
    "alpha_2": "SO",
    "alpha_3": "SOM",
    "phone_code": "252"
  },
  "southafrica": {
    "name": "جنوب أفريقيا",
    "en_name": "South Africa",
    "native_name": "South Africa",
    "capital": "بريتوريا",
    "en_capital": "Pretoria",
    "alpha_2": "ZA",
    "alpha_3": "ZAF",
    "phone_code": "27"
  },
  "southgeorgia": {
    "name": "جورجيا الجنوبية",
    "en_name": "South Georgia",
    "native_name": "South Georgia",
    "capital": "الملك إدوارد نقطة",
    "en_capital": "King Edward Point",
    "alpha_2": "GS",
    "alpha_3": "SGS",
    "phone_code": "500"
  },
  "southkorea": {
    "name": "كوريا الجنوبية",
    "en_name": "South Korea",
    "native_name": "대한민국",
    "capital": "سيول",
    "en_capital": "Seoul",
    "alpha_2": "KR",
    "alpha_3": "KOR",
    "phone_code": "82"
  },
  "southsudan": {
    "name": "جنوب السودان",
    "en_name": "South Sudan",
    "native_name": "South Sudan",
    "capital": "جوبا",
    "en_capital": "Juba",
    "alpha_2": "SS",
    "alpha_3": "SSD",
    "phone_code": "211"
  },
  "spain": {
    "name": "إسبانيا",
    "en_name": "Spain",
    "native_name": "España",
    "capital": "مدريد",
    "en_capital": "Madrid",
    "alpha_2": "ES",
    "alpha_3": "ESP",
    "phone_code": "34"
  },
  "srilanka": {
    "name": "سري لانكا",
    "en_name": "Sri Lanka",
    "native_name": "śrī laṃkāva",
    "capital": "كولومبو",
    "en_capital": "Colombo",
    "alpha_2": "LK",
    "alpha_3": "LKA",
    "phone_code": "94"
  },
  "sudan": {
    "name": "السودان",
    "en_name": "Sudan",
    "native_name": "السودان",
    "capital": "الخرطوم",
    "en_capital": "Khartoum",
    "alpha_2": "SD",
    "alpha_3": "SDN",
    "phone_code": "249"
  },
  "suriname": {
    "name": "سورينام",
    "en_name": "Suriname",
    "native_name": "Suriname",
    "capital": "باراماريبو",
    "en_capital": "Paramaribo",
    "alpha_2": "SR",
    "alpha_3": "SUR",
    "phone_code": "597"
  },
  "svalbardandjanmayen": {
    "name": "سفالبارد وجان مايان",
    "en_name": "Svalbard and Jan Mayen",
    "native_name": "Svalbard og Jan Mayen",
    "capital": "لونجييربن",
    "en_capital": "Longyearbyen",
    "alpha_2": "SJ",
    "alpha_3": "SJM",
    "phone_code": "4779"
  },
  "swaziland": {
    "name": "سوازيلند",
    "en_name": "Swaziland",
    "native_name": "Swaziland",
    "capital": "Lobamba",
    "en_capital": "Lobamba",
    "alpha_2": "SZ",
    "alpha_3": "SWZ",
    "phone_code": "268"
  },
  "sweden": {
    "name": "السويد",
    "en_name": "Sweden",
    "native_name": "Sverige",
    "capital": "ستوكهولم",
    "en_capital": "Stockholm",
    "alpha_2": "SE",
    "alpha_3": "SWE",
    "phone_code": "46"
  },
  "switzerland": {
    "name": "سويسرا",
    "en_name": "Switzerland",
    "native_name": "Schweiz",
    "capital": "برن",
    "en_capital": "Bern",
    "alpha_2": "CH",
    "alpha_3": "CHE",
    "phone_code": "41"
  },
  "syria": {
    "name": "سوريا",
    "en_name": "Syria",
    "native_name": "سوريا",
    "capital": "دمشق",
    "en_capital": "Damascus",
    "alpha_2": "SY",
    "alpha_3": "SYR",
    "phone_code": "963"
  },
  "taiwan": {
    "name": "تايوان",
    "en_name": "Taiwan",
    "native_name": "臺灣",
    "capital": "تايبيه",
    "en_capital": "Taipei",
    "alpha_2": "TW",
    "alpha_3": "TWN",
    "phone_code": "886"
  },
  "tajikistan": {
    "name": "طاجيكستان",
    "en_name": "Tajikistan",
    "native_name": "Тоҷикистон",
    "capital": "دوشانبي",
    "en_capital": "Dushanbe",
    "alpha_2": "TJ",
    "alpha_3": "TJK",
    "phone_code": "992"
  },
  "tanzania": {
    "name": "تنزانيا",
    "en_name": "Tanzania",
    "native_name": "Tanzania",
    "capital": "دودوما",
    "en_capital": "Dodoma",
    "alpha_2": "TZ",
    "alpha_3": "TZA",
    "phone_code": "255"
  },
  "thailand": {
    "name": "تايلند",
    "en_name": "Thailand",
    "native_name": "ประเทศไทย",
    "capital": "بانكوك",
    "en_capital": "Bangkok",
    "alpha_2": "TH",
    "alpha_3": "THA",
    "phone_code": "66"
  },
  "easttimor": {
    "name": "تيمور الشرقية",
    "en_name": "East Timor",
    "native_name": "Timor-Leste",
    "capital": "ديلي",
    "en_capital": "Dili",
    "alpha_2": "TL",
    "alpha_3": "TLS",
    "phone_code": "670"
  },
  "togo": {
    "name": "توغو",
    "en_name": "Togo",
    "native_name": "Togo",
    "capital": "لومي",
    "en_capital": "Lomé",
    "alpha_2": "TG",
    "alpha_3": "TGO",
    "phone_code": "228"
  },
  "tokelau": {
    "name": "توكيلاو",
    "en_name": "Tokelau",
    "native_name": "Tokelau",
    "capital": "فاكاوفو",
    "en_capital": "Fakaofo",
    "alpha_2": "TK",
    "alpha_3": "TKL",
    "phone_code": "690"
  },
  "tonga": {
    "name": "تونغا",
    "en_name": "Tonga",
    "native_name": "Tonga",
    "capital": "Nuku'alofa",
    "en_capital": "Nuku'alofa",
    "alpha_2": "TO",
    "alpha_3": "TON",
    "phone_code": "676"
  },
  "trinidadandtobago": {
    "name": "ترينيداد وتوباغو",
    "en_name": "Trinidad and Tobago",
    "native_name": "Trinidad and Tobago",
    "capital": "ميناء أسبانيا",
    "en_capital": "Port of Spain",
    "alpha_2": "TT",
    "alpha_3": "TTO",
    "phone_code": "1868"
  },
  "tunisia": {
    "name": "تونس",
    "en_name": "Tunisia",
    "native_name": "تونس",
    "capital": "تونس",
    "en_capital": "Tunis",
    "alpha_2": "TN",
    "alpha_3": "TUN",
    "phone_code": "216"
  },
  "turkey": {
    "name": "تركيا",
    "en_name": "Turkey",
    "native_name": "Türkiye",
    "capital": "أنقرة",
    "en_capital": "Ankara",
    "alpha_2": "TR",
    "alpha_3": "TUR",
    "phone_code": "90"
  },
  "turkmenistan": {
    "name": "تركمانستان",
    "en_name": "Turkmenistan",
    "native_name": "Türkmenistan",
    "capital": "عشق أباد",
    "en_capital": "Ashgabat",
    "alpha_2": "TM",
    "alpha_3": "TKM",
    "phone_code": "993"
  },
  "turksandcaicosislands": {
    "name": "جزر تركس وكايكوس",
    "en_name": "Turks and Caicos Islands",
    "native_name": "Turks and Caicos Islands",
    "capital": "كوكبرن تاون",
    "en_capital": "Cockburn Town",
    "alpha_2": "TC",
    "alpha_3": "TCA",
    "phone_code": "1649"
  },
  "tuvalu": {
    "name": "توفالو",
    "en_name": "Tuvalu",
    "native_name": "Tuvalu",
    "capital": "فونافوتي",
    "en_capital": "Funafuti",
    "alpha_2": "TV",
    "alpha_3": "TUV",
    "phone_code": "688"
  },
  "uganda": {
    "name": "أوغندا",
    "en_name": "Uganda",
    "native_name": "Uganda",
    "capital": "كمبالا",
    "en_capital": "Kampala",
    "alpha_2": "UG",
    "alpha_3": "UGA",
    "phone_code": "256"
  },
  "ukraine": {
    "name": "أوكرانيا",
    "en_name": "Ukraine",
    "native_name": "Україна",
    "capital": "كييف",
    "en_capital": "Kiev",
    "alpha_2": "UA",
    "alpha_3": "UKR",
    "phone_code": "380"
  },
  "unitedarabemirates": {
    "name": "الإمارات العربية المتحدة",
    "en_name": "United Arab Emirates",
    "native_name": "دولة الإمارات العربية المتحدة",
    "capital": "أبو ظبي",
    "en_capital": "Abu Dhabi",
    "alpha_2": "AE",
    "alpha_3": "ARE",
    "phone_code": "971"
  },
  "unitedkingdom": {
    "name": "المملكة المتحدة",
    "en_name": "United Kingdom",
    "native_name": "United Kingdom",
    "capital": "لندن",
    "en_capital": "London",
    "alpha_2": "GB",
    "alpha_3": "GBR",
    "phone_code": "44"
  },
  "unitedstates": {
    "name": "الولايات المتحدة",
    "en_name": "United States",
    "native_name": "United States",
    "capital": "واشنطن العاصمة",
    "en_capital": "Washington D.C.",
    "alpha_2": "US",
    "alpha_3": "USA",
    "phone_code": "1"
  },
  "uruguay": {
    "name": "أوروغواي",
    "en_name": "Uruguay",
    "native_name": "Uruguay",
    "capital": "مونتيفيديو",
    "en_capital": "Montevideo",
    "alpha_2": "UY",
    "alpha_3": "URY",
    "phone_code": "598"
  },
  "uzbekistan": {
    "name": "أوزبكستان",
    "en_name": "Uzbekistan",
    "native_name": "O‘zbekiston",
    "capital": "طشقند",
    "en_capital": "Tashkent",
    "alpha_2": "UZ",
    "alpha_3": "UZB",
    "phone_code": "998"
  },
  "vanuatu": {
    "name": "فانواتو",
    "en_name": "Vanuatu",
    "native_name": "Vanuatu",
    "capital": "بورت فيلا",
    "en_capital": "Port Vila",
    "alpha_2": "VU",
    "alpha_3": "VUT",
    "phone_code": "678"
  },
  "venezuela": {
    "name": "فنزويلا",
    "en_name": "Venezuela",
    "native_name": "Venezuela",
    "capital": "كاراكاس",
    "en_capital": "Caracas",
    "alpha_2": "VE",
    "alpha_3": "VEN",
    "phone_code": "58"
  },
  "vietnam": {
    "name": "فيتنام",
    "en_name": "Vietnam",
    "native_name": "Việt Nam",
    "capital": "هانوي",
    "en_capital": "Hanoi",
    "alpha_2": "VN",
    "alpha_3": "VNM",
    "phone_code": "84"
  },
  "wallisandfutuna": {
    "name": "واليس وفوتونا",
    "en_name": "Wallis and Futuna",
    "native_name": "Wallis et Futuna",
    "capital": "ماتايوتو",
    "en_capital": "Mata-Utu",
    "alpha_2": "WF",
    "alpha_3": "WLF",
    "phone_code": "681"
  },
  "westernsahara": {
    "name": "الصحراء الغربية",
    "en_name": "Western Sahara",
    "native_name": "الصحراء الغربية",
    "capital": "العيون",
    "en_capital": "El Aaiún",
    "alpha_2": "EH",
    "alpha_3": "ESH",
    "phone_code": "212"
  },
  "yemen": {
    "name": "اليمن",
    "en_name": "Yemen",
    "native_name": "اليَمَن",
    "capital": "صنعاء",
    "en_capital": "Sana'a",
    "alpha_2": "YE",
    "alpha_3": "YEM",
    "phone_code": "967"
  },
  "zambia": {
    "name": "زامبيا",
    "en_name": "Zambia",
    "native_name": "Zambia",
    "capital": "لوساكا",
    "en_capital": "Lusaka",
    "alpha_2": "ZM",
    "alpha_3": "ZMB",
    "phone_code": "260"
  },
  "zimbabwe": {
    "name": "زمبابوي",
    "en_name": "Zimbabwe",
    "native_name": "Zimbabwe",
    "capital": "هراري",
    "en_capital": "Harare",
    "alpha_2": "ZW",
    "alpha_3": "ZWE",
    "phone_code": "263"
  }
}