{
    "afghanistan": {
        "name": "アフガニスタン",
        "en_name": "Afghanistan",
        "native_name": "افغانستان",
        "capital": "カブール",
        "en_capital": "Kabul",
        "alpha_2": "AF",
        "alpha_3": "AFG",
        "phone_code": "93"
    },
    "Ålandislands": {
        "name": "オーランド諸島",
        "en_name": "Åland Islands",
        "native_name": "Åland",
        "capital": "マリエハムン",
        "en_capital": "Mariehamn",
        "alpha_2": "AX",
        "alpha_3": "ALA",
        "phone_code": "358"
    },
    "albania": {
        "name": "アルバニア",
        "en_name": "Albania",
        "native_name": "Shqipëria",
        "capital": "ティラナ",
        "en_capital": "Tirana",
        "alpha_2": "AL",
        "alpha_3": "ALB",
        "phone_code": "355"
    },
    "algeria": {
        "name": "アルジェリア",
        "en_name": "Algeria",
        "native_name": "الجزائر",
        "capital": "アルジェ",
        "en_capital": "Algiers",
        "alpha_2": "DZ",
        "alpha_3": "DZA",
        "phone_code": "213"
    },
    "americansamoa": {
        "name": "アメリカ領サモア",
        "en_name": "American Samoa",
        "native_name": "American Samoa",
        "capital": "Pago Pago",
        "en_capital": "Pago Pago",
        "alpha_2": "AS",
        "alpha_3": "ASM",
        "phone_code": "1684"
    },
    "andorra": {
        "name": "アンドラ",
        "en_name": "Andorra",
        "native_name": "Andorra",
        "capital": "アンドララベラ",
        "en_capital": "Andorra la Vella",
        "alpha_2": "AD",
        "alpha_3": "AND",
        "phone_code": "376"
    },
    "angola": {
        "name": "アンゴラ",
        "en_name": "Angola",
        "native_name": "Angola",
        "capital": "ルアンダ",
        "en_capital": "Luanda",
        "alpha_2": "AO",
        "alpha_3": "AGO",
        "phone_code": "244"
    },
    "anguilla": {
        "name": "ギ",
        "en_name": "Anguilla",
        "native_name": "Anguilla",
        "capital": "渓谷",
        "en_capital": "The Valley",
        "alpha_2": "AI",
        "alpha_3": "AIA",
        "phone_code": "1264"
    },
    "antiguaandbarbuda": {
        "name": "アンティグアバーブーダ",
        "en_name": "Antigua and Barbuda",
        "native_name": "Antigua and Barbuda",
        "capital": "セントジョンの",
        "en_capital": "Saint John's",
        "alpha_2": "AG",
        "alpha_3": "ATG",
        "phone_code": "1268"
    },
    "argentina": {
        "name": "アルゼンチン",
        "en_name": "Argentina",
        "native_name": "Argentina",
        "capital": "ブエノスアイレス",
        "en_capital": "Buenos Aires",
        "alpha_2": "AR",
        "alpha_3": "ARG",
        "phone_code": "54"
    },
    "armenia": {
        "name": "アルメニア",
        "en_name": "Armenia",
        "native_name": "Հայաստան",
        "capital": "エレバン",
        "en_capital": "Yerevan",
        "alpha_2": "AM",
        "alpha_3": "ARM",
        "phone_code": "374"
    },
    "aruba": {
        "name": "Aruba",
        "en_name": "Aruba",
        "native_name": "Aruba",
        "capital": "オランジェスタッド",
        "en_capital": "Oranjestad",
        "alpha_2": "AW",
        "alpha_3": "ABW",
        "phone_code": "297"
    },
    "australia": {
        "name": "豪州",
        "en_name": "Australia",
        "native_name": "Australia",
        "capital": "キャンベラ",
        "en_capital": "Canberra",
        "alpha_2": "AU",
        "alpha_3": "AUS",
        "phone_code": "61"
    },
    "austria": {
        "name": "オーストリア",
        "en_name": "Austria",
        "native_name": "Österreich",
        "capital": "ウィーン",
        "en_capital": "Vienna",
        "alpha_2": "AT",
        "alpha_3": "AUT",
        "phone_code": "43"
    },
    "azerbaijan": {
        "name": "アゼルバイジャン",
        "en_name": "Azerbaijan",
        "native_name": "Azərbaycan",
        "capital": "バクー",
        "en_capital": "Baku",
        "alpha_2": "AZ",
        "alpha_3": "AZE",
        "phone_code": "994"
    },
    "thebahamas": {
        "name": "バハマ",
        "en_name": "The Bahamas",
        "native_name": "Bahamas",
        "capital": "ナッソー",
        "en_capital": "Nassau",
        "alpha_2": "BS",
        "alpha_3": "BHS",
        "phone_code": "1242"
    },
    "bahrain": {
        "name": "バーレーン",
        "en_name": "Bahrain",
        "native_name": "‏البحرين",
        "capital": "マナーマ",
        "en_capital": "Manama",
        "alpha_2": "BH",
        "alpha_3": "BHR",
        "phone_code": "973"
    },
    "bangladesh": {
        "name": "バングラデシュ",
        "en_name": "Bangladesh",
        "native_name": "Bangladesh",
        "capital": "ダッカ",
        "en_capital": "Dhaka",
        "alpha_2": "BD",
        "alpha_3": "BGD",
        "phone_code": "880"
    },
    "barbados": {
        "name": "バルバドス",
        "en_name": "Barbados",
        "native_name": "Barbados",
        "capital": "ブリッジタウン",
        "en_capital": "Bridgetown",
        "alpha_2": "BB",
        "alpha_3": "BRB",
        "phone_code": "1246"
    },
    "belarus": {
        "name": "ベラルーシ",
        "en_name": "Belarus",
        "native_name": "Белару́сь",
        "capital": "ミンスク",
        "en_capital": "Minsk",
        "alpha_2": "BY",
        "alpha_3": "BLR",
        "phone_code": "375"
    },
    "belgium": {
        "name": "ベルギー",
        "en_name": "Belgium",
        "native_name": "België",
        "capital": "ブリュッセル",
        "en_capital": "Brussels",
        "alpha_2": "BE",
        "alpha_3": "BEL",
        "phone_code": "32"
    },
    "belize": {
        "name": "ベリーズシティ",
        "en_name": "Belize",
        "native_name": "Belize",
        "capital": "Belmopan",
        "en_capital": "Belmopan",
        "alpha_2": "BZ",
        "alpha_3": "BLZ",
        "phone_code": "501"
    },
    "benin": {
        "name": "ベナン",
        "en_name": "Benin",
        "native_name": "Bénin",
        "capital": "Porto-Novo",
        "en_capital": "Porto-Novo",
        "alpha_2": "BJ",
        "alpha_3": "BEN",
        "phone_code": "229"
    },
    "bermuda": {
        "name": "バミューダ",
        "en_name": "Bermuda",
        "native_name": "Bermuda",
        "capital": "ハミルトン",
        "en_capital": "Hamilton",
        "alpha_2": "BM",
        "alpha_3": "BMU",
        "phone_code": "1441"
    },
    "bhutan": {
        "name": "ブータン",
        "en_name": "Bhutan",
        "native_name": "ʼbrug-yul",
        "capital": "Thimphu",
        "en_capital": "Thimphu",
        "alpha_2": "BT",
        "alpha_3": "BTN",
        "phone_code": "975"
    },
    "bolivia": {
        "name": "ボリビア",
        "en_name": "Bolivia",
        "native_name": "Bolivia",
        "capital": "Sucre",
        "en_capital": "Sucre",
        "alpha_2": "BO",
        "alpha_3": "BOL",
        "phone_code": "591"
    },
    "bonaire": {
        "name": "ボネール島",
        "en_name": "Bonaire",
        "native_name": "Bonaire",
        "capital": "Kralendijk",
        "en_capital": "Kralendijk",
        "alpha_2": "BQ",
        "alpha_3": "BES",
        "phone_code": "5997"
    },
    "botswana": {
        "name": "ボツワナ",
        "en_name": "Botswana",
        "native_name": "Botswana",
        "capital": "ハボローネ",
        "en_capital": "Gaborone",
        "alpha_2": "BW",
        "alpha_3": "BWA",
        "phone_code": "267"
    },
    "brazil": {
        "name": "ブラジル",
        "en_name": "Brazil",
        "native_name": "Brasil",
        "capital": "Brasília",
        "en_capital": "Brasília",
        "alpha_2": "BR",
        "alpha_3": "BRA",
        "phone_code": "55"
    },
    "britishindianoceanterritory": {
        "name": "イギリス領インド洋",
        "en_name": "British Indian Ocean Territory",
        "native_name": "British Indian Ocean Territory",
        "capital": "ディエゴ-ガルシア",
        "en_capital": "Diego Garcia",
        "alpha_2": "IO",
        "alpha_3": "IOT",
        "phone_code": "246"
    },
    "britishvirginislands": {
        "name": "イギリス領バージン諸島",
        "en_name": "British Virgin Islands",
        "native_name": "British Virgin Islands",
        "capital": "ロードタウン",
        "en_capital": "Road Town",
        "alpha_2": "VG",
        "alpha_3": "VGB",
        "phone_code": "1284"
    },
    "brunei": {
        "name": "ブルネイ",
        "en_name": "Brunei",
        "native_name": "Negara Brunei Darussalam",
        "capital": "バンダルスリブガワン",
        "en_capital": "Bandar Seri Begawan",
        "alpha_2": "BN",
        "alpha_3": "BRN",
        "phone_code": "673"
    },
    "bulgaria": {
        "name": "ブルガリア",
        "en_name": "Bulgaria",
        "native_name": "България",
        "capital": "ソフィア",
        "en_capital": "Sofia",
        "alpha_2": "BG",
        "alpha_3": "BGR",
        "phone_code": "359"
    },
    "burkinafaso": {
        "name": "ブルキナファソ",
        "en_name": "Burkina Faso",
        "native_name": "Burkina Faso",
        "capital": "ワガドゥグ",
        "en_capital": "Ouagadougou",
        "alpha_2": "BF",
        "alpha_3": "BFA",
        "phone_code": "226"
    },
    "burundi": {
        "name": "ブルンジ",
        "en_name": "Burundi",
        "native_name": "Burundi",
        "capital": "Bujumbura",
        "en_capital": "Bujumbura",
        "alpha_2": "BI",
        "alpha_3": "BDI",
        "phone_code": "257"
    },
    "cambodia": {
        "name": "カンボジア",
        "en_name": "Cambodia",
        "native_name": "Kâmpŭchéa",
        "capital": "プノンペン",
        "en_capital": "Phnom Penh",
        "alpha_2": "KH",
        "alpha_3": "KHM",
        "phone_code": "855"
    },
    "cameroon": {
        "name": "カメルーン",
        "en_name": "Cameroon",
        "native_name": "Cameroon",
        "capital": "Yaoundé",
        "en_capital": "Yaoundé",
        "alpha_2": "CM",
        "alpha_3": "CMR",
        "phone_code": "237"
    },
    "canada": {
        "name": "カナダ",
        "en_name": "Canada",
        "native_name": "Canada",
        "capital": "オタワ",
        "en_capital": "Ottawa",
        "alpha_2": "CA",
        "alpha_3": "CAN",
        "phone_code": "1"
    },
    "capeverde": {
        "name": "カーボヴェルデ",
        "en_name": "Cape Verde",
        "native_name": "Cabo Verde",
        "capital": "プライア",
        "en_capital": "Praia",
        "alpha_2": "CV",
        "alpha_3": "CPV",
        "phone_code": "238"
    },
    "caymanislands": {
        "name": "ケイマン諸島",
        "en_name": "Cayman Islands",
        "native_name": "Cayman Islands",
        "capital": "ジョージタウン",
        "en_capital": "George Town",
        "alpha_2": "KY",
        "alpha_3": "CYM",
        "phone_code": "1345"
    },
    "centralafricanrepublic": {
        "name": "中央アフリカ共和国",
        "en_name": "Central African Republic",
        "native_name": "Ködörösêse tî Bêafrîka",
        "capital": "Bangui",
        "en_capital": "Bangui",
        "alpha_2": "CF",
        "alpha_3": "CAF",
        "phone_code": "236"
    },
    "chad": {
        "name": "チャド",
        "en_name": "Chad",
        "native_name": "Tchad",
        "capital": "N'Djamena",
        "en_capital": "N'Djamena",
        "alpha_2": "TD",
        "alpha_3": "TCD",
        "phone_code": "235"
    },
    "chile": {
        "name": "チリ",
        "en_name": "Chile",
        "native_name": "Chile",
        "capital": "サンティアゴ",
        "en_capital": "Santiago",
        "alpha_2": "CL",
        "alpha_3": "CHL",
        "phone_code": "56"
    },
    "china": {
        "name": "中国",
        "en_name": "China",
        "native_name": "中国",
        "capital": "北京",
        "en_capital": "Beijing",
        "alpha_2": "CN",
        "alpha_3": "CHN",
        "phone_code": "86"
    },
    "christmasisland": {
        "name": "クリスマス島",
        "en_name": "Christmas Island",
        "native_name": "Christmas Island",
        "capital": "飛び魚コーブ",
        "en_capital": "Flying Fish Cove",
        "alpha_2": "CX",
        "alpha_3": "CXR",
        "phone_code": "61"
    },
    "cocos(keeling)islands": {
        "name": "皆様のお越しをお待ち致キーリング群島",
        "en_name": "Cocos (Keeling) Islands",
        "native_name": "Cocos (Keeling) Islands",
        "capital": "西島",
        "en_capital": "West Island",
        "alpha_2": "CC",
        "alpha_3": "CCK",
        "phone_code": "61"
    },
    "colombia": {
        "name": "コロンビア",
        "en_name": "Colombia",
        "native_name": "Colombia",
        "capital": "-ボゴタ",
        "en_capital": "Bogotá",
        "alpha_2": "CO",
        "alpha_3": "COL",
        "phone_code": "57"
    },
    "comoros": {
        "name": "コモロ",
        "en_name": "Comoros",
        "native_name": "Komori",
        "capital": "Moroni",
        "en_capital": "Moroni",
        "alpha_2": "KM",
        "alpha_3": "COM",
        "phone_code": "269"
    },
    "republicofthecongo": {
        "name": "コンゴ共和国",
        "en_name": "Republic of the Congo",
        "native_name": "République du Congo",
        "capital": "Brazzaville",
        "en_capital": "Brazzaville",
        "alpha_2": "CG",
        "alpha_3": "COG",
        "phone_code": "242"
    },
    "democraticrepublicofthecongo": {
        "name": "コンゴ民主共和国",
        "en_name": "Democratic Republic of the Congo",
        "native_name": "République démocratique du Congo",
        "capital": "人気の高いキンシャサ",
        "en_capital": "Kinshasa",
        "alpha_2": "CD",
        "alpha_3": "COD",
        "phone_code": "243"
    },
    "cookislands": {
        "name": "クック諸島",
        "en_name": "Cook Islands",
        "native_name": "Cook Islands",
        "capital": "Avarua",
        "en_capital": "Avarua",
        "alpha_2": "CK",
        "alpha_3": "COK",
        "phone_code": "682"
    },
    "costarica": {
        "name": "コスタリカ",
        "en_name": "Costa Rica",
        "native_name": "Costa Rica",
        "capital": "サンホセ",
        "en_capital": "San José",
        "alpha_2": "CR",
        "alpha_3": "CRI",
        "phone_code": "506"
    },
    "croatia": {
        "name": "クロアチア",
        "en_name": "Croatia",
        "native_name": "Hrvatska",
        "capital": "ザグレブ",
        "en_capital": "Zagreb",
        "alpha_2": "HR",
        "alpha_3": "HRV",
        "phone_code": "385"
    },
    "cuba": {
        "name": "キューバ",
        "en_name": "Cuba",
        "native_name": "Cuba",
        "capital": "ハバナ",
        "en_capital": "Havana",
        "alpha_2": "CU",
        "alpha_3": "CUB",
        "phone_code": "53"
    },
    "curaçao": {
        "name": "キュラソー島",
        "en_name": "Curaçao",
        "native_name": "Curaçao",
        "capital": "ウィレムスタッド",
        "en_capital": "Willemstad",
        "alpha_2": "CW",
        "alpha_3": "CUW",
        "phone_code": "5999"
    },
    "cyprus": {
        "name": "キプロス",
        "en_name": "Cyprus",
        "native_name": "Κύπρος",
        "capital": "ニコシア",
        "en_capital": "Nicosia",
        "alpha_2": "CY",
        "alpha_3": "CYP",
        "phone_code": "357"
    },
    "czechrepublic": {
        "name": "チェコ共和国",
        "en_name": "Czech Republic",
        "native_name": "Česká republika",
        "capital": "プラハ",
        "en_capital": "Prague",
        "alpha_2": "CZ",
        "alpha_3": "CZE",
        "phone_code": "420"
    },
    "denmark": {
        "name": "デンマーク",
        "en_name": "Denmark",
        "native_name": "Danmark",
        "capital": "コペンハーゲン",
        "en_capital": "Copenhagen",
        "alpha_2": "DK",
        "alpha_3": "DNK",
        "phone_code": "45"
    },
    "djibouti": {
        "name": "ジブチ",
        "en_name": "Djibouti",
        "native_name": "Djibouti",
        "capital": "ジブチ",
        "en_capital": "Djibouti",
        "alpha_2": "DJ",
        "alpha_3": "DJI",
        "phone_code": "253"
    },
    "dominica": {
        "name": "ドミニカ共和国",
        "en_name": "Dominica",
        "native_name": "Dominica",
        "capital": "ロソ",
        "en_capital": "Roseau",
        "alpha_2": "DM",
        "alpha_3": "DMA",
        "phone_code": "1767"
    },
    "dominicanrepublic": {
        "name": "ドミニカ共和国",
        "en_name": "Dominican Republic",
        "native_name": "República Dominicana",
        "capital": "サントドミンゴ",
        "en_capital": "Santo Domingo",
        "alpha_2": "DO",
        "alpha_3": "DOM",
        "phone_code": "1809"
    },
    "ecuador": {
        "name": "エクアドル",
        "en_name": "Ecuador",
        "native_name": "Ecuador",
        "capital": "キト",
        "en_capital": "Quito",
        "alpha_2": "EC",
        "alpha_3": "ECU",
        "phone_code": "593"
    },
    "egypt": {
        "name": "エジプト",
        "en_name": "Egypt",
        "native_name": "مصر‎",
        "capital": "カイロ",
        "en_capital": "Cairo",
        "alpha_2": "EG",
        "alpha_3": "EGY",
        "phone_code": "20"
    },
    "elsalvador": {
        "name": "エルサルバドル",
        "en_name": "El Salvador",
        "native_name": "El Salvador",
        "capital": "サンサルバドル",
        "en_capital": "San Salvador",
        "alpha_2": "SV",
        "alpha_3": "SLV",
        "phone_code": "503"
    },
    "equatorialguinea": {
        "name": "赤道ギニア",
        "en_name": "Equatorial Guinea",
        "native_name": "Guinea Ecuatorial",
        "capital": "Santa isabel",
        "en_capital": "Malabo",
        "alpha_2": "GQ",
        "alpha_3": "GNQ",
        "phone_code": "240"
    },
    "eritrea": {
        "name": "エリトリア",
        "en_name": "Eritrea",
        "native_name": "ኤርትራ",
        "capital": "Asmara",
        "en_capital": "Asmara",
        "alpha_2": "ER",
        "alpha_3": "ERI",
        "phone_code": "291"
    },
    "estonia": {
        "name": "エストニア",
        "en_name": "Estonia",
        "native_name": "Eesti",
        "capital": "タリン",
        "en_capital": "Tallinn",
        "alpha_2": "EE",
        "alpha_3": "EST",
        "phone_code": "372"
    },
    "ethiopia": {
        "name": "エチオピア",
        "en_name": "Ethiopia",
        "native_name": "ኢትዮጵያ",
        "capital": "アディスアベバ",
        "en_capital": "Addis Ababa",
        "alpha_2": "ET",
        "alpha_3": "ETH",
        "phone_code": "251"
    },
    "falklandislands": {
        "name": "フォークランド諸島",
        "en_name": "Falkland Islands",
        "native_name": "Falkland Islands",
        "capital": "スタンレー",
        "en_capital": "Stanley",
        "alpha_2": "FK",
        "alpha_3": "FLK",
        "phone_code": "500"
    },
    "faroeislands": {
        "name": "フェロー諸島",
        "en_name": "Faroe Islands",
        "native_name": "Føroyar",
        "capital": "トースハウン",
        "en_capital": "Tórshavn",
        "alpha_2": "FO",
        "alpha_3": "FRO",
        "phone_code": "298"
    },
    "fiji": {
        "name": "フィジー",
        "en_name": "Fiji",
        "native_name": "Fiji",
        "capital": "Suva",
        "en_capital": "Suva",
        "alpha_2": "FJ",
        "alpha_3": "FJI",
        "phone_code": "679"
    },
    "finland": {
        "name": "フィンランド",
        "en_name": "Finland",
        "native_name": "Suomi",
        "capital": "ヘルシンキ",
        "en_capital": "Helsinki",
        "alpha_2": "FI",
        "alpha_3": "FIN",
        "phone_code": "358"
    },
    "france": {
        "name": "フランス",
        "en_name": "France",
        "native_name": "France",
        "capital": "パリの",
        "en_capital": "Paris",
        "alpha_2": "FR",
        "alpha_3": "FRA",
        "phone_code": "33"
    },
    "frenchguiana": {
        "name": "フランスのナ",
        "en_name": "French Guiana",
        "native_name": "Guyane française",
        "capital": "カイエン",
        "en_capital": "Cayenne",
        "alpha_2": "GF",
        "alpha_3": "GUF",
        "phone_code": "594"
    },
    "frenchpolynesia": {
        "name": "フランス領ポリネシア",
        "en_name": "French Polynesia",
        "native_name": "Polynésie française",
        "capital": "Papeetē",
        "en_capital": "Papeetē",
        "alpha_2": "PF",
        "alpha_3": "PYF",
        "phone_code": "689"
    },
    "frenchsouthernandantarcticlands": {
        "name": "フランス南部および南極地",
        "en_name": "French Southern and Antarctic Lands",
        "native_name": "Territoire des Terres australes et antarctiques françaises",
        "capital": "ポート-aux-ティチュ-フランセパリ本部",
        "en_capital": "Port-aux-Français",
        "alpha_2": "TF",
        "alpha_3": "ATF",
        "phone_code": "262"
    },
    "gabon": {
        "name": "ガボン",
        "en_name": "Gabon",
        "native_name": "Gabon",
        "capital": "リーブル",
        "en_capital": "Libreville",
        "alpha_2": "GA",
        "alpha_3": "GAB",
        "phone_code": "241"
    },
    "thegambia": {
        "name": "ガンビア",
        "en_name": "The Gambia",
        "native_name": "Gambia",
        "capital": "Banjul",
        "en_capital": "Banjul",
        "alpha_2": "GM",
        "alpha_3": "GMB",
        "phone_code": "220"
    },
    "georgia": {
        "name": "ジョージア",
        "en_name": "Georgia",
        "native_name": "საქართველო",
        "capital": "トビリシ",
        "en_capital": "Tbilisi",
        "alpha_2": "GE",
        "alpha_3": "GEO",
        "phone_code": "995"
    },
    "germany": {
        "name": "ドイツ",
        "en_name": "Germany",
        "native_name": "Deutschland",
        "capital": "ベルリン",
        "en_capital": "Berlin",
        "alpha_2": "DE",
        "alpha_3": "DEU",
        "phone_code": "49"
    },
    "ghana": {
        "name": "ガーナ",
        "en_name": "Ghana",
        "native_name": "Ghana",
        "capital": "アクラ",
        "en_capital": "Accra",
        "alpha_2": "GH",
        "alpha_3": "GHA",
        "phone_code": "233"
    },
    "gibraltar": {
        "name": "ジブラルタル",
        "en_name": "Gibraltar",
        "native_name": "Gibraltar",
        "capital": "ジブラルタル",
        "en_capital": "Gibraltar",
        "alpha_2": "GI",
        "alpha_3": "GIB",
        "phone_code": "350"
    },
    "greece": {
        "name": "ギリシャ",
        "en_name": "Greece",
        "native_name": "Ελλάδα",
        "capital": "アテネ",
        "en_capital": "Athens",
        "alpha_2": "GR",
        "alpha_3": "GRC",
        "phone_code": "30"
    },
    "greenland": {
        "name": "グリーンランド",
        "en_name": "Greenland",
        "native_name": "Kalaallit Nunaat",
        "capital": "Nuuk",
        "en_capital": "Nuuk",
        "alpha_2": "GL",
        "alpha_3": "GRL",
        "phone_code": "299"
    },
    "grenada": {
        "name": "グレナダ",
        "en_name": "Grenada",
        "native_name": "Grenada",
        "capital": "セントジョージ",
        "en_capital": "St. George's",
        "alpha_2": "GD",
        "alpha_3": "GRD",
        "phone_code": "1473"
    },
    "guadeloupe": {
        "name": "グアドループ",
        "en_name": "Guadeloupe",
        "native_name": "Guadeloupe",
        "capital": "バセテール",
        "en_capital": "Basse-Terre",
        "alpha_2": "GP",
        "alpha_3": "GLP",
        "phone_code": "590"
    },
    "guam": {
        "name": "グアム",
        "en_name": "Guam",
        "native_name": "Guam",
        "capital": "Hagåtña",
        "en_capital": "Hagåtña",
        "alpha_2": "GU",
        "alpha_3": "GUM",
        "phone_code": "1671"
    },
    "guatemala": {
        "name": "グアテマラ",
        "en_name": "Guatemala",
        "native_name": "Guatemala",
        "capital": "グアテマラシティ",
        "en_capital": "Guatemala City",
        "alpha_2": "GT",
        "alpha_3": "GTM",
        "phone_code": "502"
    },
    "guernsey": {
        "name": "ガーンジー島",
        "en_name": "Guernsey",
        "native_name": "Guernsey",
        "capital": "セントピーターローマカトリックポート",
        "en_capital": "St. Peter Port",
        "alpha_2": "GG",
        "alpha_3": "GGY",
        "phone_code": "44"
    },
    "guinea": {
        "name": "ギニア",
        "en_name": "Guinea",
        "native_name": "Guinée",
        "capital": "コナクリ",
        "en_capital": "Conakry",
        "alpha_2": "GN",
        "alpha_3": "GIN",
        "phone_code": "224"
    },
    "guineabissau": {
        "name": "ギニアビサウ",
        "en_name": "Guinea-Bissau",
        "native_name": "Guiné-Bissau",
        "capital": "ビサウ",
        "en_capital": "Bissau",
        "alpha_2": "GW",
        "alpha_3": "GNB",
        "phone_code": "245"
    },
    "guyana": {
        "name": "ガイアナ",
        "en_name": "Guyana",
        "native_name": "Guyana",
        "capital": "ジョージタウン",
        "en_capital": "Georgetown",
        "alpha_2": "GY",
        "alpha_3": "GUY",
        "phone_code": "592"
    },
    "haiti": {
        "name": "ハイチ",
        "en_name": "Haiti",
        "native_name": "Haïti",
        "capital": "ポルトープランス",
        "en_capital": "Port-au-Prince",
        "alpha_2": "HT",
        "alpha_3": "HTI",
        "phone_code": "509"
    },
    "honduras": {
        "name": "ホンジュラス",
        "en_name": "Honduras",
        "native_name": "Honduras",
        "capital": "テグシガルパ",
        "en_capital": "Tegucigalpa",
        "alpha_2": "HN",
        "alpha_3": "HND",
        "phone_code": "504"
    },
    "hongkong": {
        "name": "香港",
        "en_name": "Hong Kong",
        "native_name": "香港",
        "capital": "都市のヴィクトリア",
        "en_capital": "City of Victoria",
        "alpha_2": "HK",
        "alpha_3": "HKG",
        "phone_code": "852"
    },
    "hungary": {
        "name": "ハンガリー",
        "en_name": "Hungary",
        "native_name": "Magyarország",
        "capital": "ブダペスト",
        "en_capital": "Budapest",
        "alpha_2": "HU",
        "alpha_3": "HUN",
        "phone_code": "36"
    },
    "iceland": {
        "name": "アイスランド",
        "en_name": "Iceland",
        "native_name": "Ísland",
        "capital": "レイキャビク",
        "en_capital": "Reykjavik",
        "alpha_2": "IS",
        "alpha_3": "ISL",
        "phone_code": "354"
    },
    "india": {
        "name": "インド",
        "en_name": "India",
        "native_name": "भारत",
        "capital": "ニューデリー",
        "en_capital": "New Delhi",
        "alpha_2": "IN",
        "alpha_3": "IND",
        "phone_code": "91"
    },
    "indonesia": {
        "name": "インドネシア",
        "en_name": "Indonesia",
        "native_name": "Indonesia",
        "capital": "ジャカルタ",
        "en_capital": "Jakarta",
        "alpha_2": "ID",
        "alpha_3": "IDN",
        "phone_code": "62"
    },
    "ivorycoast": {
        "name": "象牙海岸",
        "en_name": "Ivory Coast",
        "native_name": "Côte d'Ivoire",
        "capital": "Yamoussoukro",
        "en_capital": "Yamoussoukro",
        "alpha_2": "CI",
        "alpha_3": "CIV",
        "phone_code": "225"
    },
    "iran": {
        "name": "イラン",
        "en_name": "Iran",
        "native_name": "Irān",
        "capital": "テヘラン",
        "en_capital": "Tehran",
        "alpha_2": "IR",
        "alpha_3": "IRN",
        "phone_code": "98"
    },
    "iraq": {
        "name": "イラク",
        "en_name": "Iraq",
        "native_name": "العراق",
        "capital": "バグダード",
        "en_capital": "Baghdad",
        "alpha_2": "IQ",
        "alpha_3": "IRQ",
        "phone_code": "964"
    },
    "republicofireland": {
        "name": "アイルランド共和国",
        "en_name": "Republic of Ireland",
        "native_name": "Éire",
        "capital": "ダブリン",
        "en_capital": "Dublin",
        "alpha_2": "IE",
        "alpha_3": "IRL",
        "phone_code": "353"
    },
    "isleofman": {
        "name": "マン島",
        "en_name": "Isle of Man",
        "native_name": "Isle of Man",
        "capital": "ダグラス",
        "en_capital": "Douglas",
        "alpha_2": "IM",
        "alpha_3": "IMN",
        "phone_code": "44"
    },
    "israel": {
        "name": "イスラエル",
        "en_name": "Israel",
        "native_name": "יִשְׂרָאֵל",
        "capital": "テルアビブ",
        "en_capital": "Tel Aviv",
        "alpha_2": "IL",
        "alpha_3": "ISR",
        "phone_code": "972"
    },
    "italy": {
        "name": "イタリア",
        "en_name": "Italy",
        "native_name": "Italia",
        "capital": "ローマ",
        "en_capital": "Rome",
        "alpha_2": "IT",
        "alpha_3": "ITA",
        "phone_code": "39"
    },
    "jamaica": {
        "name": "ジャマイカ",
        "en_name": "Jamaica",
        "native_name": "Jamaica",
        "capital": "キングストン",
        "en_capital": "Kingston",
        "alpha_2": "JM",
        "alpha_3": "JAM",
        "phone_code": "1876"
    },
    "japan": {
        "name": "日本",
        "en_name": "Japan",
        "native_name": "日本",
        "capital": "東京",
        "en_capital": "Tokyo",
        "alpha_2": "JP",
        "alpha_3": "JPN",
        "phone_code": "81"
    },
    "jordan": {
        "name": "ヨルダン",
        "en_name": "Jordan",
        "native_name": "الأردن",
        "capital": "アンマン",
        "en_capital": "Amman",
        "alpha_2": "JO",
        "alpha_3": "JOR",
        "phone_code": "962"
    },
    "kazakhstan": {
        "name": "カザフスタン",
        "en_name": "Kazakhstan",
        "native_name": "Қазақстан",
        "capital": "アスタナ",
        "en_capital": "Astana",
        "alpha_2": "KZ",
        "alpha_3": "KAZ",
        "phone_code": "76"
    },
    "kenya": {
        "name": "ケニア",
        "en_name": "Kenya",
        "native_name": "Kenya",
        "capital": "ナイロビ",
        "en_capital": "Nairobi",
        "alpha_2": "KE",
        "alpha_3": "KEN",
        "phone_code": "254"
    },
    "kiribati": {
        "name": "キリバス",
        "en_name": "Kiribati",
        "native_name": "Kiribati",
        "capital": "南Tarawa",
        "en_capital": "South Tarawa",
        "alpha_2": "KI",
        "alpha_3": "KIR",
        "phone_code": "686"
    },
    "kuwait": {
        "name": "クウェート",
        "en_name": "Kuwait",
        "native_name": "الكويت",
        "capital": "クウェート市",
        "en_capital": "Kuwait City",
        "alpha_2": "KW",
        "alpha_3": "KWT",
        "phone_code": "965"
    },
    "kyrgyzstan": {
        "name": "キルギス",
        "en_name": "Kyrgyzstan",
        "native_name": "Кыргызстан",
        "capital": "ビシュケク",
        "en_capital": "Bishkek",
        "alpha_2": "KG",
        "alpha_3": "KGZ",
        "phone_code": "996"
    },
    "laos": {
        "name": "ラオス",
        "en_name": "Laos",
        "native_name": "ສປປລາວ",
        "capital": "ビエンチャン",
        "en_capital": "Vientiane",
        "alpha_2": "LA",
        "alpha_3": "LAO",
        "phone_code": "856"
    },
    "latvia": {
        "name": "ラトビア",
        "en_name": "Latvia",
        "native_name": "Latvija",
        "capital": "リガ",
        "en_capital": "Riga",
        "alpha_2": "LV",
        "alpha_3": "LVA",
        "phone_code": "371"
    },
    "lebanon": {
        "name": "レバノン",
        "en_name": "Lebanon",
        "native_name": "لبنان",
        "capital": "ベイルート",
        "en_capital": "Beirut",
        "alpha_2": "LB",
        "alpha_3": "LBN",
        "phone_code": "961"
    },
    "lesotho": {
        "name": "レソト",
        "en_name": "Lesotho",
        "native_name": "Lesotho",
        "capital": "Maseru",
        "en_capital": "Maseru",
        "alpha_2": "LS",
        "alpha_3": "LSO",
        "phone_code": "266"
    },
    "liberia": {
        "name": "リベリア",
        "en_name": "Liberia",
        "native_name": "Liberia",
        "capital": "モンロビア",
        "en_capital": "Monrovia",
        "alpha_2": "LR",
        "alpha_3": "LBR",
        "phone_code": "231"
    },
    "libya": {
        "name": "リビア",
        "en_name": "Libya",
        "native_name": "‏ليبيا",
        "capital": "トリポリ",
        "en_capital": "Tripoli",
        "alpha_2": "LY",
        "alpha_3": "LBY",
        "phone_code": "218"
    },
    "liechtenstein": {
        "name": "リヒテンシュタイン",
        "en_name": "Liechtenstein",
        "native_name": "Liechtenstein",
        "capital": "ファドゥーツ",
        "en_capital": "Vaduz",
        "alpha_2": "LI",
        "alpha_3": "LIE",
        "phone_code": "423"
    },
    "lithuania": {
        "name": "リトアニア",
        "en_name": "Lithuania",
        "native_name": "Lietuva",
        "capital": "市庁舎広場とヴィリニュス市庁舎",
        "en_capital": "Vilnius",
        "alpha_2": "LT",
        "alpha_3": "LTU",
        "phone_code": "370"
    },
    "luxembourg": {
        "name": "ルクセンブルク",
        "en_name": "Luxembourg",
        "native_name": "Luxembourg",
        "capital": "ルクセンブルク",
        "en_capital": "Luxembourg",
        "alpha_2": "LU",
        "alpha_3": "LUX",
        "phone_code": "352"
    },
    "republicofmacedonia": {
        "name": "マケドニア共和国",
        "en_name": "Republic of Macedonia",
        "native_name": "Македонија",
        "capital": "スコピエ",
        "en_capital": "Skopje",
        "alpha_2": "MK",
        "alpha_3": "MKD",
        "phone_code": "389"
    },
    "madagascar": {
        "name": "マダガスカル",
        "en_name": "Madagascar",
        "native_name": "Madagasikara",
        "capital": "アンタナナリボ",
        "en_capital": "Antananarivo",
        "alpha_2": "MG",
        "alpha_3": "MDG",
        "phone_code": "261"
    },
    "malawi": {
        "name": "マラウイ",
        "en_name": "Malawi",
        "native_name": "Malawi",
        "capital": "リロングウェ",
        "en_capital": "Lilongwe",
        "alpha_2": "MW",
        "alpha_3": "MWI",
        "phone_code": "265"
    },
    "malaysia": {
        "name": "マレーシア",
        "en_name": "Malaysia",
        "native_name": "Malaysia",
        "capital": "クアラルンプール",
        "en_capital": "Kuala Lumpur",
        "alpha_2": "MY",
        "alpha_3": "MYS",
        "phone_code": "60"
    },
    "maldives": {
        "name": "モルディブ",
        "en_name": "Maldives",
        "native_name": "Maldives",
        "capital": "マレ",
        "en_capital": "Malé",
        "alpha_2": "MV",
        "alpha_3": "MDV",
        "phone_code": "960"
    },
    "mali": {
        "name": "マリ",
        "en_name": "Mali",
        "native_name": "Mali",
        "capital": "各",
        "en_capital": "Bamako",
        "alpha_2": "ML",
        "alpha_3": "MLI",
        "phone_code": "223"
    },
    "malta": {
        "name": "マルタ",
        "en_name": "Malta",
        "native_name": "Malta",
        "capital": "バレッタ",
        "en_capital": "Valletta",
        "alpha_2": "MT",
        "alpha_3": "MLT",
        "phone_code": "356"
    },
    "marshallislands": {
        "name": "マーシャル諸島",
        "en_name": "Marshall Islands",
        "native_name": "M̧ajeļ",
        "capital": "マジュロ",
        "en_capital": "Majuro",
        "alpha_2": "MH",
        "alpha_3": "MHL",
        "phone_code": "692"
    },
    "martinique": {
        "name": "マルチニーク",
        "en_name": "Martinique",
        "native_name": "Martinique",
        "capital": "フォートドフランス",
        "en_capital": "Fort-de-France",
        "alpha_2": "MQ",
        "alpha_3": "MTQ",
        "phone_code": "596"
    },
    "mauritania": {
        "name": "モーリタニア",
        "en_name": "Mauritania",
        "native_name": "موريتانيا",
        "capital": "Nouakchott",
        "en_capital": "Nouakchott",
        "alpha_2": "MR",
        "alpha_3": "MRT",
        "phone_code": "222"
    },
    "mauritius": {
        "name": "モーリシャス",
        "en_name": "Mauritius",
        "native_name": "Maurice",
        "capital": "ポートルイス",
        "en_capital": "Port Louis",
        "alpha_2": "MU",
        "alpha_3": "MUS",
        "phone_code": "230"
    },
    "mayotte": {
        "name": "マヨット島",
        "en_name": "Mayotte",
        "native_name": "Mayotte",
        "capital": "Mamoudzou",
        "en_capital": "Mamoudzou",
        "alpha_2": "YT",
        "alpha_3": "MYT",
        "phone_code": "262"
    },
    "mexico": {
        "name": "メキシコ",
        "en_name": "Mexico",
        "native_name": "México",
        "capital": "メキシコシティ",
        "en_capital": "Mexico City",
        "alpha_2": "MX",
        "alpha_3": "MEX",
        "phone_code": "52"
    },
    "federatedstatesofmicronesia": {
        "name": "ミクロネシア連邦",
        "en_name": "Federated States of Micronesia",
        "native_name": "Micronesia",
        "capital": "Palikir",
        "en_capital": "Palikir",
        "alpha_2": "FM",
        "alpha_3": "FSM",
        "phone_code": "691"
    },
    "moldova": {
        "name": "モルドバ",
        "en_name": "Moldova",
        "native_name": "Moldova",
        "capital": "Chișinău",
        "en_capital": "Chișinău",
        "alpha_2": "MD",
        "alpha_3": "MDA",
        "phone_code": "373"
    },
    "monaco": {
        "name": "モナコ",
        "en_name": "Monaco",
        "native_name": "Monaco",
        "capital": "モナコ",
        "en_capital": "Monaco",
        "alpha_2": "MC",
        "alpha_3": "MCO",
        "phone_code": "377"
    },
    "mongolia": {
        "name": "モンゴル",
        "en_name": "Mongolia",
        "native_name": "Монгол улс",
        "capital": "久",
        "en_capital": "Ulan Bator",
        "alpha_2": "MN",
        "alpha_3": "MNG",
        "phone_code": "976"
    },
    "montenegro": {
        "name": "モンテネグロ",
        "en_name": "Montenegro",
        "native_name": "Црна Гора",
        "capital": "ポトゴリツァ",
        "en_capital": "Podgorica",
        "alpha_2": "ME",
        "alpha_3": "MNE",
        "phone_code": "382"
    },
    "montserrat": {
        "name": "Montserrat",
        "en_name": "Montserrat",
        "native_name": "Montserrat",
        "capital": "プリマス",
        "en_capital": "Plymouth",
        "alpha_2": "MS",
        "alpha_3": "MSR",
        "phone_code": "1664"
    },
    "morocco": {
        "name": "モロッコ",
        "en_name": "Morocco",
        "native_name": "المغرب",
        "capital": "ラバト",
        "en_capital": "Rabat",
        "alpha_2": "MA",
        "alpha_3": "MAR",
        "phone_code": "212"
    },
    "mozambique": {
        "name": "モザンビーク",
        "en_name": "Mozambique",
        "native_name": "Moçambique",
        "capital": "マプト",
        "en_capital": "Maputo",
        "alpha_2": "MZ",
        "alpha_3": "MOZ",
        "phone_code": "258"
    },
    "myanmar": {
        "name": "ミャンマー",
        "en_name": "Myanmar",
        "native_name": "Myanma",
        "capital": "ネピドー",
        "en_capital": "Naypyidaw",
        "alpha_2": "MM",
        "alpha_3": "MMR",
        "phone_code": "95"
    },
    "namibia": {
        "name": "ナミビア",
        "en_name": "Namibia",
        "native_name": "Namibia",
        "capital": "ウィントフック",
        "en_capital": "Windhoek",
        "alpha_2": "NA",
        "alpha_3": "NAM",
        "phone_code": "264"
    },
    "nauru": {
        "name": "ナウル",
        "en_name": "Nauru",
        "native_name": "Nauru",
        "capital": "Yaren",
        "en_capital": "Yaren",
        "alpha_2": "NR",
        "alpha_3": "NRU",
        "phone_code": "674"
    },
    "nepal": {
        "name": "ネパール",
        "en_name": "Nepal",
        "native_name": "नपल",
        "capital": "カトマンズ",
        "en_capital": "Kathmandu",
        "alpha_2": "NP",
        "alpha_3": "NPL",
        "phone_code": "977"
    },
    "netherlands": {
        "name": "オランダ",
        "en_name": "Netherlands",
        "native_name": "Nederland",
        "capital": "アムステルダム",
        "en_capital": "Amsterdam",
        "alpha_2": "NL",
        "alpha_3": "NLD",
        "phone_code": "31"
    },
    "newcaledonia": {
        "name": "ニューカレドニア",
        "en_name": "New Caledonia",
        "native_name": "Nouvelle-Calédonie",
        "capital": "ヌメア",
        "en_capital": "Nouméa",
        "alpha_2": "NC",
        "alpha_3": "NCL",
        "phone_code": "687"
    },
    "newzealand": {
        "name": "ニュージーランド",
        "en_name": "New Zealand",
        "native_name": "New Zealand",
        "capital": "ウェリントン",
        "en_capital": "Wellington",
        "alpha_2": "NZ",
        "alpha_3": "NZL",
        "phone_code": "64"
    },
    "nicaragua": {
        "name": "ニカラグア",
        "en_name": "Nicaragua",
        "native_name": "Nicaragua",
        "capital": "マナグア",
        "en_capital": "Managua",
        "alpha_2": "NI",
        "alpha_3": "NIC",
        "phone_code": "505"
    },
    "niger": {
        "name": "ニジェール",
        "en_name": "Niger",
        "native_name": "Niger",
        "capital": "Niamey",
        "en_capital": "Niamey",
        "alpha_2": "NE",
        "alpha_3": "NER",
        "phone_code": "227"
    },
    "nigeria": {
        "name": "ナイジェリア",
        "en_name": "Nigeria",
        "native_name": "Nigeria",
        "capital": "ブジャ",
        "en_capital": "Abuja",
        "alpha_2": "NG",
        "alpha_3": "NGA",
        "phone_code": "234"
    },
    "niue": {
        "name": "ニウェ島",
        "en_name": "Niue",
        "native_name": "Niuē",
        "capital": "Alofi",
        "en_capital": "Alofi",
        "alpha_2": "NU",
        "alpha_3": "NIU",
        "phone_code": "683"
    },
    "norfolkisland": {
        "name": "ノーフォーク島",
        "en_name": "Norfolk Island",
        "native_name": "Norfolk Island",
        "capital": "キングストン",
        "en_capital": "Kingston",
        "alpha_2": "NF",
        "alpha_3": "NFK",
        "phone_code": "672"
    },
    "northkorea": {
        "name": "北朝鮮",
        "en_name": "North Korea",
        "native_name": "북한",
        "capital": "北朝鮮",
        "en_capital": "Pyongyang",
        "alpha_2": "KP",
        "alpha_3": "PRK",
        "phone_code": "850"
    },
    "northernmarianaislands": {
        "name": "北マリアナ諸島",
        "en_name": "Northern Mariana Islands",
        "native_name": "Northern Mariana Islands",
        "capital": "サイパン",
        "en_capital": "Saipan",
        "alpha_2": "MP",
        "alpha_3": "MNP",
        "phone_code": "1670"
    },
    "norway": {
        "name": "ノルウェー",
        "en_name": "Norway",
        "native_name": "Norge",
        "capital": "オスロ",
        "en_capital": "Oslo",
        "alpha_2": "NO",
        "alpha_3": "NOR",
        "phone_code": "47"
    },
    "oman": {
        "name": "オマーン",
        "en_name": "Oman",
        "native_name": "عمان",
        "capital": "マスカット",
        "en_capital": "Muscat",
        "alpha_2": "OM",
        "alpha_3": "OMN",
        "phone_code": "968"
    },
    "pakistan": {
        "name": "パキスタン",
        "en_name": "Pakistan",
        "native_name": "Pakistan",
        "capital": "イスラマバード",
        "en_capital": "Islamabad",
        "alpha_2": "PK",
        "alpha_3": "PAK",
        "phone_code": "92"
    },
    "palau": {
        "name": "パラオ",
        "en_name": "Palau",
        "native_name": "Palau",
        "capital": "Ngerulmud",
        "en_capital": "Ngerulmud",
        "alpha_2": "PW",
        "alpha_3": "PLW",
        "phone_code": "680"
    },
    "palestine": {
        "name": "パレスチナ",
        "en_name": "Palestine",
        "native_name": "فلسطين",
        "capital": "エルサレム",
        "en_capital": "Jerusalem",
        "alpha_2": "PS",
        "alpha_3": "PSE",
        "phone_code": "970"
    },
    "panama": {
        "name": "パナマ",
        "en_name": "Panama",
        "native_name": "Panamá",
        "capital": "パナマ市",
        "en_capital": "Panama City",
        "alpha_2": "PA",
        "alpha_3": "PAN",
        "phone_code": "507"
    },
    "papuanewguinea": {
        "name": "パプアニューギニア",
        "en_name": "Papua New Guinea",
        "native_name": "Papua Niugini",
        "capital": "ポートモレスビー",
        "en_capital": "Port Moresby",
        "alpha_2": "PG",
        "alpha_3": "PNG",
        "phone_code": "675"
    },
    "paraguay": {
        "name": "パラグアイ",
        "en_name": "Paraguay",
        "native_name": "Paraguay",
        "capital": "アスンシオン",
        "en_capital": "Asunción",
        "alpha_2": "PY",
        "alpha_3": "PRY",
        "phone_code": "595"
    },
    "peru": {
        "name": "ペルー",
        "en_name": "Peru",
        "native_name": "Perú",
        "capital": "リマ",
        "en_capital": "Lima",
        "alpha_2": "PE",
        "alpha_3": "PER",
        "phone_code": "51"
    },
    "philippines": {
        "name": "フィリピン",
        "en_name": "Philippines",
        "native_name": "Pilipinas",
        "capital": "マニラ",
        "en_capital": "Manila",
        "alpha_2": "PH",
        "alpha_3": "PHL",
        "phone_code": "63"
    },
    "pitcairnislands": {
        "name": "Pitcairn島",
        "en_name": "Pitcairn Islands",
        "native_name": "Pitcairn Islands",
        "capital": "Adamstown",
        "en_capital": "Adamstown",
        "alpha_2": "PN",
        "alpha_3": "PCN",
        "phone_code": "64"
    },
    "poland": {
        "name": "ポーランド",
        "en_name": "Poland",
        "native_name": "Polska",
        "capital": "ワルシャワ",
        "en_capital": "Warsaw",
        "alpha_2": "PL",
        "alpha_3": "POL",
        "phone_code": "48"
    },
    "portugal": {
        "name": "ポルトガル",
        "en_name": "Portugal",
        "native_name": "Portugal",
        "capital": "リスボン",
        "en_capital": "Lisbon",
        "alpha_2": "PT",
        "alpha_3": "PRT",
        "phone_code": "351"
    },
    "puertorico": {
        "name": "プエルトリコ",
        "en_name": "Puerto Rico",
        "native_name": "Puerto Rico",
        "capital": "サンファン",
        "en_capital": "San Juan",
        "alpha_2": "PR",
        "alpha_3": "PRI",
        "phone_code": "1787"
    },
    "qatar": {
        "name": "カタール",
        "en_name": "Qatar",
        "native_name": "قطر",
        "capital": "ドーハ",
        "en_capital": "Doha",
        "alpha_2": "QA",
        "alpha_3": "QAT",
        "phone_code": "974"
    },
    "republicofkosovo": {
        "name": "コソボ共和国",
        "en_name": "Republic of Kosovo",
        "native_name": "Republika e Kosovës",
        "capital": "プリシュティナ",
        "en_capital": "Pristina",
        "alpha_2": "XK",
        "alpha_3": "KOS",
        "phone_code": "383"
    },
    "réunion": {
        "name": "レユニオン",
        "en_name": "Réunion",
        "native_name": "La Réunion",
        "capital": "サンドニ",
        "en_capital": "Saint-Denis",
        "alpha_2": "RE",
        "alpha_3": "REU",
        "phone_code": "262"
    },
    "romania": {
        "name": "ルーマニア",
        "en_name": "Romania",
        "native_name": "România",
        "capital": "ブカレスト",
        "en_capital": "Bucharest",
        "alpha_2": "RO",
        "alpha_3": "ROU",
        "phone_code": "40"
    },
    "russia": {
        "name": "ロシア",
        "en_name": "Russia",
        "native_name": "Россия",
        "capital": "モスクワ",
        "en_capital": "Moscow",
        "alpha_2": "RU",
        "alpha_3": "RUS",
        "phone_code": "7"
    },
    "rwanda": {
        "name": "ルワンダ",
        "en_name": "Rwanda",
        "native_name": "Rwanda",
        "capital": "プロジ",
        "en_capital": "Kigali",
        "alpha_2": "RW",
        "alpha_3": "RWA",
        "phone_code": "250"
    },
    "saintbarthélemy": {
        "name": "サンBarthélemy",
        "en_name": "Saint Barthélemy",
        "native_name": "Saint-Barthélemy",
        "capital": "グスタビア",
        "en_capital": "Gustavia",
        "alpha_2": "BL",
        "alpha_3": "BLM",
        "phone_code": "590"
    },
    "saintkittsandnevis": {
        "name": "ントキッツ、ネイビス",
        "en_name": "Saint Kitts and Nevis",
        "native_name": "Saint Kitts and Nevis",
        "capital": "バステ",
        "en_capital": "Basseterre",
        "alpha_2": "KN",
        "alpha_3": "KNA",
        "phone_code": "1869"
    },
    "saintlucia": {
        "name": "セントルシア",
        "en_name": "Saint Lucia",
        "native_name": "Saint Lucia",
        "capital": "Castries",
        "en_capital": "Castries",
        "alpha_2": "LC",
        "alpha_3": "LCA",
        "phone_code": "1758"
    },
    "saintmartin": {
        "name": "サンマルタン",
        "en_name": "Saint Martin",
        "native_name": "Saint-Martin",
        "capital": "マリゴット",
        "en_capital": "Marigot",
        "alpha_2": "MF",
        "alpha_3": "MAF",
        "phone_code": "590"
    },
    "saintpierreandmiquelon": {
        "name": "サンピエール島-ミクロン島",
        "en_name": "Saint Pierre and Miquelon",
        "native_name": "Saint-Pierre-et-Miquelon",
        "capital": "サンピエール",
        "en_capital": "Saint-Pierre",
        "alpha_2": "PM",
        "alpha_3": "SPM",
        "phone_code": "508"
    },
    "saintvincentandthegrenadines": {
        "name": "サンヴァンサンの高級",
        "en_name": "Saint Vincent and the Grenadines",
        "native_name": "Saint Vincent and the Grenadines",
        "capital": "キングズタウン市場、植物園",
        "en_capital": "Kingstown",
        "alpha_2": "VC",
        "alpha_3": "VCT",
        "phone_code": "1784"
    },
    "samoa": {
        "name": "サモア",
        "en_name": "Samoa",
        "native_name": "Samoa",
        "capital": "アピア",
        "en_capital": "Apia",
        "alpha_2": "WS",
        "alpha_3": "WSM",
        "phone_code": "685"
    },
    "sanmarino": {
        "name": "サンマリノ",
        "en_name": "San Marino",
        "native_name": "San Marino",
        "capital": "市サンマリノ",
        "en_capital": "City of San Marino",
        "alpha_2": "SM",
        "alpha_3": "SMR",
        "phone_code": "378"
    },
    "sãotoméandpríncipe": {
        "name": "サンToméとPríncipe",
        "en_name": "São Tomé and Príncipe",
        "native_name": "São Tomé e Príncipe",
        "capital": "サンTomé",
        "en_capital": "São Tomé",
        "alpha_2": "ST",
        "alpha_3": "STP",
        "phone_code": "239"
    },
    "saudiarabia": {
        "name": "サウジアラビア",
        "en_name": "Saudi Arabia",
        "native_name": "العربية السعودية",
        "capital": "リヤド",
        "en_capital": "Riyadh",
        "alpha_2": "SA",
        "alpha_3": "SAU",
        "phone_code": "966"
    },
    "senegal": {
        "name": "セネガル",
        "en_name": "Senegal",
        "native_name": "Sénégal",
        "capital": "ダカール",
        "en_capital": "Dakar",
        "alpha_2": "SN",
        "alpha_3": "SEN",
        "phone_code": "221"
    },
    "serbia": {
        "name": "セルビア",
        "en_name": "Serbia",
        "native_name": "Србија",
        "capital": "ベオグラード",
        "en_capital": "Belgrade",
        "alpha_2": "RS",
        "alpha_3": "SRB",
        "phone_code": "381"
    },
    "seychelles": {
        "name": "エリアを表示一部のエリアを表示",
        "en_name": "Seychelles",
        "native_name": "Seychelles",
        "capital": "ビクトリア",
        "en_capital": "Victoria",
        "alpha_2": "SC",
        "alpha_3": "SYC",
        "phone_code": "248"
    },
    "sierraleone": {
        "name": "シエラレオネ",
        "en_name": "Sierra Leone",
        "native_name": "Sierra Leone",
        "capital": "フリータウン",
        "en_capital": "Freetown",
        "alpha_2": "SL",
        "alpha_3": "SLE",
        "phone_code": "232"
    },
    "singapore": {
        "name": "シンガポール",
        "en_name": "Singapore",
        "native_name": "Singapore",
        "capital": "シンガポール",
        "en_capital": "Singapore",
        "alpha_2": "SG",
        "alpha_3": "SGP",
        "phone_code": "65"
    },
    "sintmaarten": {
        "name": "Sint Maarten",
        "en_name": "Sint Maarten",
        "native_name": "Sint Maarten",
        "capital": "Philipsburg",
        "en_capital": "Philipsburg",
        "alpha_2": "SX",
        "alpha_3": "SXM",
        "phone_code": "1721"
    },
    "slovakia": {
        "name": "スロバキア",
        "en_name": "Slovakia",
        "native_name": "Slovensko",
        "capital": "ブラティスラヴァ",
        "en_capital": "Bratislava",
        "alpha_2": "SK",
        "alpha_3": "SVK",
        "phone_code": "421"
    },
    "slovenia": {
        "name": "スロベニア",
        "en_name": "Slovenia",
        "native_name": "Slovenija",
        "capital": "リュブリャナ",
        "en_capital": "Ljubljana",
        "alpha_2": "SI",
        "alpha_3": "SVN",
        "phone_code": "386"
    },
    "solomonislands": {
        "name": "ソロモン諸島",
        "en_name": "Solomon Islands",
        "native_name": "Solomon Islands",
        "capital": "衛",
        "en_capital": "Honiara",
        "alpha_2": "SB",
        "alpha_3": "SLB",
        "phone_code": "677"
    },
    "somalia": {
        "name": "ソマリア",
        "en_name": "Somalia",
        "native_name": "Soomaaliya",
        "capital": "モガディシュ",
        "en_capital": "Mogadishu",
        "alpha_2": "SO",
        "alpha_3": "SOM",
        "phone_code": "252"
    },
    "southafrica": {
        "name": "南アフリカ",
        "en_name": "South Africa",
        "native_name": "South Africa",
        "capital": "プレトリア",
        "en_capital": "Pretoria",
        "alpha_2": "ZA",
        "alpha_3": "ZAF",
        "phone_code": "27"
    },
    "southgeorgia": {
        "name": "南ジョージア",
        "en_name": "South Georgia",
        "native_name": "South Georgia",
        "capital": "キングエドワード点",
        "en_capital": "King Edward Point",
        "alpha_2": "GS",
        "alpha_3": "SGS",
        "phone_code": "500"
    },
    "southkorea": {
        "name": "韓国",
        "en_name": "South Korea",
        "native_name": "대한민국",
        "capital": "ソウル",
        "en_capital": "Seoul",
        "alpha_2": "KR",
        "alpha_3": "KOR",
        "phone_code": "82"
    },
    "southsudan": {
        "name": "南スーダン",
        "en_name": "South Sudan",
        "native_name": "South Sudan",
        "capital": "ジュバ",
        "en_capital": "Juba",
        "alpha_2": "SS",
        "alpha_3": "SSD",
        "phone_code": "211"
    },
    "spain": {
        "name": "スペイン",
        "en_name": "Spain",
        "native_name": "España",
        "capital": "マドリード",
        "en_capital": "Madrid",
        "alpha_2": "ES",
        "alpha_3": "ESP",
        "phone_code": "34"
    },
    "srilanka": {
        "name": "スリランカ",
        "en_name": "Sri Lanka",
        "native_name": "śrī laṃkāva",
        "capital": "コロンボ",
        "en_capital": "Colombo",
        "alpha_2": "LK",
        "alpha_3": "LKA",
        "phone_code": "94"
    },
    "sudan": {
        "name": "スーダン",
        "en_name": "Sudan",
        "native_name": "السودان",
        "capital": "ハルツーム",
        "en_capital": "Khartoum",
        "alpha_2": "SD",
        "alpha_3": "SDN",
        "phone_code": "249"
    },
    "suriname": {
        "name": "スリナム",
        "en_name": "Suriname",
        "native_name": "Suriname",
        "capital": "Paramaribo",
        "en_capital": "Paramaribo",
        "alpha_2": "SR",
        "alpha_3": "SUR",
        "phone_code": "597"
    },
    "svalbardandjanmayen": {
        "name": "スバールバルヤンMayen",
        "en_name": "Svalbard and Jan Mayen",
        "native_name": "Svalbard og Jan Mayen",
        "capital": "ニィオル",
        "en_capital": "Longyearbyen",
        "alpha_2": "SJ",
        "alpha_3": "SJM",
        "phone_code": "4779"
    },
    "swaziland": {
        "name": "スワジランド",
        "en_name": "Swaziland",
        "native_name": "Swaziland",
        "capital": "Lobamba",
        "en_capital": "Lobamba",
        "alpha_2": "SZ",
        "alpha_3": "SWZ",
        "phone_code": "268"
    },
    "sweden": {
        "name": "スウェーデン",
        "en_name": "Sweden",
        "native_name": "Sverige",
        "capital": "ストックホルム",
        "en_capital": "Stockholm",
        "alpha_2": "SE",
        "alpha_3": "SWE",
        "phone_code": "46"
    },
    "switzerland": {
        "name": "スイス",
        "en_name": "Switzerland",
        "native_name": "Schweiz",
        "capital": "ベルン",
        "en_capital": "Bern",
        "alpha_2": "CH",
        "alpha_3": "CHE",
        "phone_code": "41"
    },
    "syria": {
        "name": "シリア",
        "en_name": "Syria",
        "native_name": "سوريا",
        "capital": "ダマスカス",
        "en_capital": "Damascus",
        "alpha_2": "SY",
        "alpha_3": "SYR",
        "phone_code": "963"
    },
    "taiwan": {
        "name": "台湾",
        "en_name": "Taiwan",
        "native_name": "臺灣",
        "capital": "台北",
        "en_capital": "Taipei",
        "alpha_2": "TW",
        "alpha_3": "TWN",
        "phone_code": "886"
    },
    "tajikistan": {
        "name": "タジキスタン",
        "en_name": "Tajikistan",
        "native_name": "Тоҷикистон",
        "capital": "ドシャンベ",
        "en_capital": "Dushanbe",
        "alpha_2": "TJ",
        "alpha_3": "TJK",
        "phone_code": "992"
    },
    "tanzania": {
        "name": "タンザニア",
        "en_name": "Tanzania",
        "native_name": "Tanzania",
        "capital": "Dodoma",
        "en_capital": "Dodoma",
        "alpha_2": "TZ",
        "alpha_3": "TZA",
        "phone_code": "255"
    },
    "thailand": {
        "name": "タイ",
        "en_name": "Thailand",
        "native_name": "ประเทศไทย",
        "capital": "バンコク",
        "en_capital": "Bangkok",
        "alpha_2": "TH",
        "alpha_3": "THA",
        "phone_code": "66"
    },
    "easttimor": {
        "name": "東ティモール",
        "en_name": "East Timor",
        "native_name": "Timor-Leste",
        "capital": "前調査",
        "en_capital": "Dili",
        "alpha_2": "TL",
        "alpha_3": "TLS",
        "phone_code": "670"
    },
    "togo": {
        "name": "東郷",
        "en_name": "Togo",
        "native_name": "Togo",
        "capital": "Lomé",
        "en_capital": "Lomé",
        "alpha_2": "TG",
        "alpha_3": "TGO",
        "phone_code": "228"
    },
    "tokelau": {
        "name": "ケラウ諸島",
        "en_name": "Tokelau",
        "native_name": "Tokelau",
        "capital": "Fakaofo",
        "en_capital": "Fakaofo",
        "alpha_2": "TK",
        "alpha_3": "TKL",
        "phone_code": "690"
    },
    "tonga": {
        "name": "トンガ",
        "en_name": "Tonga",
        "native_name": "Tonga",
        "capital": "ぬ'alofa",
        "en_capital": "Nuku'alofa",
        "alpha_2": "TO",
        "alpha_3": "TON",
        "phone_code": "676"
    },
    "trinidadandtobago": {
        "name": "トリニダード-トバゴ",
        "en_name": "Trinidad and Tobago",
        "native_name": "Trinidad and Tobago",
        "capital": "ポートオブスペイン",
        "en_capital": "Port of Spain",
        "alpha_2": "TT",
        "alpha_3": "TTO",
        "phone_code": "1868"
    },
    "tunisia": {
        "name": "チュニジア",
        "en_name": "Tunisia",
        "native_name": "تونس",
        "capital": "チュニス",
        "en_capital": "Tunis",
        "alpha_2": "TN",
        "alpha_3": "TUN",
        "phone_code": "216"
    },
    "turkey": {
        "name": "トルコ",
        "en_name": "Turkey",
        "native_name": "Türkiye",
        "capital": "アンカラ",
        "en_capital": "Ankara",
        "alpha_2": "TR",
        "alpha_3": "TUR",
        "phone_code": "90"
    },
    "turkmenistan": {
        "name": "トルクメニスタン",
        "en_name": "Turkmenistan",
        "native_name": "Türkmenistan",
        "capital": "アシガバート",
        "en_capital": "Ashgabat",
        "alpha_2": "TM",
        "alpha_3": "TKM",
        "phone_code": "993"
    },
    "turksandcaicosislands": {
        "name": "タークス-カイコス諸島",
        "en_name": "Turks and Caicos Islands",
        "native_name": "Turks and Caicos Islands",
        "capital": "Cockburn町",
        "en_capital": "Cockburn Town",
        "alpha_2": "TC",
        "alpha_3": "TCA",
        "phone_code": "1649"
    },
    "tuvalu": {
        "name": "ツバル",
        "en_name": "Tuvalu",
        "native_name": "Tuvalu",
        "capital": "Funafuti",
        "en_capital": "Funafuti",
        "alpha_2": "TV",
        "alpha_3": "TUV",
        "phone_code": "688"
    },
    "uganda": {
        "name": "ウガンダ",
        "en_name": "Uganda",
        "native_name": "Uganda",
        "capital": "マケレレ大学、カバカ宮殿",
        "en_capital": "Kampala",
        "alpha_2": "UG",
        "alpha_3": "UGA",
        "phone_code": "256"
    },
    "ukraine": {
        "name": "ウクライナ",
        "en_name": "Ukraine",
        "native_name": "Україна",
        "capital": "キエフ",
        "en_capital": "Kiev",
        "alpha_2": "UA",
        "alpha_3": "UKR",
        "phone_code": "380"
    },
    "unitedarabemirates": {
        "name": "アラブ首長国連邦",
        "en_name": "United Arab Emirates",
        "native_name": "دولة الإمارات العربية المتحدة",
        "capital": "アブダビ",
        "en_capital": "Abu Dhabi",
        "alpha_2": "AE",
        "alpha_3": "ARE",
        "phone_code": "971"
    },
    "unitedkingdom": {
        "name": "英国",
        "en_name": "United Kingdom",
        "native_name": "United Kingdom",
        "capital": "ロンドン",
        "en_capital": "London",
        "alpha_2": "GB",
        "alpha_3": "GBR",
        "phone_code": "44"
    },
    "unitedstates": {
        "name": "米国",
        "en_name": "United States",
        "native_name": "United States",
        "capital": "ワシントンd.c.",
        "en_capital": "Washington D.C.",
        "alpha_2": "US",
        "alpha_3": "USA",
        "phone_code": "1"
    },
    "uruguay": {
        "name": "ウルグアイ",
        "en_name": "Uruguay",
        "native_name": "Uruguay",
        "capital": "モンテビデオ",
        "en_capital": "Montevideo",
        "alpha_2": "UY",
        "alpha_3": "URY",
        "phone_code": "598"
    },
    "uzbekistan": {
        "name": "ウズベキスタン",
        "en_name": "Uzbekistan",
        "native_name": "O‘zbekiston",
        "capital": "タシュケント",
        "en_capital": "Tashkent",
        "alpha_2": "UZ",
        "alpha_3": "UZB",
        "phone_code": "998"
    },
    "vanuatu": {
        "name": "バヌアツ",
        "en_name": "Vanuatu",
        "native_name": "Vanuatu",
        "capital": "ポートヴィラ",
        "en_capital": "Port Vila",
        "alpha_2": "VU",
        "alpha_3": "VUT",
        "phone_code": "678"
    },
    "venezuela": {
        "name": "ベネズエラ",
        "en_name": "Venezuela",
        "native_name": "Venezuela",
        "capital": "カラカス",
        "en_capital": "Caracas",
        "alpha_2": "VE",
        "alpha_3": "VEN",
        "phone_code": "58"
    },
    "vietnam": {
        "name": "ベトナム",
        "en_name": "Vietnam",
        "native_name": "Việt Nam",
        "capital": "ハノイ",
        "en_capital": "Hanoi",
        "alpha_2": "VN",
        "alpha_3": "VNM",
        "phone_code": "84"
    },
    "wallisandfutuna": {
        "name": "(対応○",
        "en_name": "Wallis and Futuna",
        "native_name": "Wallis et Futuna",
        "capital": "マタ-Utu",
        "en_capital": "Mata-Utu",
        "alpha_2": "WF",
        "alpha_3": "WLF",
        "phone_code": "681"
    },
    "westernsahara": {
        "name": "西サハラ",
        "en_name": "Western Sahara",
        "native_name": "الصحراء الغربية",
        "capital": "エルAaiún",
        "en_capital": "El Aaiún",
        "alpha_2": "EH",
        "alpha_3": "ESH",
        "phone_code": "212"
    },
    "yemen": {
        "name": "イエメン",
        "en_name": "Yemen",
        "native_name": "اليَمَن",
        "capital": "サヌア",
        "en_capital": "Sana'a",
        "alpha_2": "YE",
        "alpha_3": "YEM",
        "phone_code": "967"
    },
    "zambia": {
        "name": "ザンビア",
        "en_name": "Zambia",
        "native_name": "Zambia",
        "capital": "ルサカ",
        "en_capital": "Lusaka",
        "alpha_2": "ZM",
        "alpha_3": "ZMB",
        "phone_code": "260"
    },
    "zimbabwe": {
        "name": "ジンバブエ",
        "en_name": "Zimbabwe",
        "native_name": "Zimbabwe",
        "capital": "ハラレ",
        "en_capital": "Harare",
        "alpha_2": "ZW",
        "alpha_3": "ZWE",
        "phone_code": "263"
    }
}